{
 "type": "FeatureCollection",
 "features": [
  {
   "type": "Feature",
   "geometry": {
    "type": "LineString",
    "coordinates": [
     [
      -34.9226,
      42.2954
     ],
     [
      -34.0407,
      43.7713
     ],
     [
      -34.2303,
      44.199
     ],
     [
      -34.1207,
      44.7681
     ],
     [
      -33.3519,
      45.1506
     ],
     [
      -31.6518,
      46.7231
     ],
     [
      -31.5029,
      47.2258
     ],
     [
      -31.0401,
      47.5704
     ],
     [
      -30.2113,
      47.7115
     ],
     [
      -26.8755,
      49.6079
     ],
     [
      -25.3495,
      49.4925
     ],
     [
      -21.875,
      49.987
     ]
    ]
   },
   "properties": {
    "typ": "warm",
    "laenge_km": 1534.9,
    "punkte": 12,
    "quelle": "Deutscher Wetterdienst, ICON-Vorhersagekarte (tkb)",
    "hinweis": "aus der DWD-Karte vektorisiert (veraendert)",
    "quelle_url": "https://opendata.dwd.de/weather/charts/forecasts/icon/global/na/Z__C_EDZW_20260727033623_nwv01%2Cico_tkb_na_N_000036_000000_202607270000_WV12.png",
    "lauf": "202607270000",
    "vorlauf_h": 36,
    "gueltig": "2026-07-28T12:00:00+00:00"
   }
  },
  {
   "type": "Feature",
   "geometry": {
    "type": "LineString",
    "coordinates": [
     [
      -21.806,
      50.0147
     ],
     [
      -17.0873,
      51.3491
     ],
     [
      -16.5601,
      51.8712
     ],
     [
      -13.5617,
      53.3737
     ],
     [
      -12.2715,
      53.7576
     ],
     [
      -11.7175,
      54.5263
     ],
     [
      -9.6083,
      56.0793
     ],
     [
      -8.4427,
      56.5336
     ],
     [
      -8.3181,
      56.8432
     ],
     [
      -8.5806,
      58.1207
     ],
     [
      -10.2132,
      59.0425
     ]
    ]
   },
   "properties": {
    "typ": "kalt",
    "laenge_km": 1590.4,
    "punkte": 11,
    "quelle": "Deutscher Wetterdienst, ICON-Vorhersagekarte (tkb)",
    "hinweis": "aus der DWD-Karte vektorisiert (veraendert)",
    "quelle_url": "https://opendata.dwd.de/weather/charts/forecasts/icon/global/na/Z__C_EDZW_20260727033623_nwv01%2Cico_tkb_na_N_000036_000000_202607270000_WV12.png",
    "lauf": "202607270000",
    "vorlauf_h": 36,
    "gueltig": "2026-07-28T12:00:00+00:00"
   }
  },
  {
   "type": "Feature",
   "geometry": {
    "type": "LineString",
    "coordinates": [
     [
      -10.2504,
      59.0941
     ],
     [
      -10.2619,
      59.2682
     ],
     [
      -8.3527,
      59.4943
     ],
     [
      -5.6357,
      59.5148
     ],
     [
      -4.0812,
      59.7821
     ],
     [
      -3.2325,
      59.6597
     ],
     [
      -2.3331,
      59.1424
     ],
     [
      4.0144,
      56.9139
     ],
     [
      4.1896,
      55.9956
     ],
     [
      5.0285,
      55.0098
     ]
    ]
   },
   "properties": {
    "typ": "warm",
    "laenge_km": 1236.6,
    "punkte": 10,
    "quelle": "Deutscher Wetterdienst, ICON-Vorhersagekarte (tkb)",
    "hinweis": "aus der DWD-Karte vektorisiert (veraendert)",
    "quelle_url": "https://opendata.dwd.de/weather/charts/forecasts/icon/global/na/Z__C_EDZW_20260727033623_nwv01%2Cico_tkb_na_N_000036_000000_202607270000_WV12.png",
    "lauf": "202607270000",
    "vorlauf_h": 36,
    "gueltig": "2026-07-28T12:00:00+00:00"
   }
  },
  {
   "type": "Feature",
   "geometry": {
    "type": "LineString",
    "coordinates": [
     [
      25.0227,
      65.3003
     ],
     [
      26.7997,
      63.854
     ],
     [
      28.3762,
      63.4571
     ],
     [
      28.9567,
      62.4823
     ],
     [
      31.5901,
      60.4195
     ],
     [
      32.8654,
      59.9229
     ],
     [
      32.7957,
      58.9813
     ],
     [
      33.4364,
      57.9449
     ],
     [
      33.885,
      56.5898
     ],
     [
      34.6829,
      55.8556
     ],
     [
      34.2759,
      54.9523
     ],
     [
      34.8921,
      52.1431
     ],
     [
      35.4995,
      51.3248
     ],
     [
      35.0425,
      50.5878
     ],
     [
      34.9034,
      48.9024
     ],
     [
      34.4003,
      47.2949
     ],
     [
      34.5016,
      46.7008
     ],
     [
      33.9649,
      46.2503
     ],
     [
      32.5148,
      43.719
     ],
     [
      31.8078,
      43.3866
     ],
     [
      31.2436,
      42.745
     ]
    ]
   },
   "properties": {
    "typ": "kalt",
    "laenge_km": 2929.3,
    "punkte": 21,
    "quelle": "Deutscher Wetterdienst, ICON-Vorhersagekarte (tkb)",
    "hinweis": "aus der DWD-Karte vektorisiert (veraendert)",
    "quelle_url": "https://opendata.dwd.de/weather/charts/forecasts/icon/global/na/Z__C_EDZW_20260727033623_nwv01%2Cico_tkb_na_N_000036_000000_202607270000_WV12.png",
    "lauf": "202607270000",
    "vorlauf_h": 36,
    "gueltig": "2026-07-28T12:00:00+00:00"
   }
  },
  {
   "type": "Feature",
   "geometry": {
    "type": "LineString",
    "coordinates": [
     [
      -58.7231,
      45.271
     ],
     [
      -55.8996,
      46.0469
     ],
     [
      -54.9275,
      45.5709
     ],
     [
      -52.282,
      44.9909
     ],
     [
      -50.4829,
      44.1805
     ],
     [
      -49.4944,
      44.0042
     ],
     [
      -49.0612,
      43.3533
     ],
     [
      -46.8122,
      42.1476
     ]
    ]
   },
   "properties": {
    "typ": "warm",
    "laenge_km": 1152.2,
    "punkte": 8,
    "quelle": "Deutscher Wetterdienst, ICON-Vorhersagekarte (tkb)",
    "hinweis": "aus der DWD-Karte vektorisiert (veraendert)",
    "quelle_url": "https://opendata.dwd.de/weather/charts/forecasts/icon/global/na/Z__C_EDZW_20260727033623_nwv01%2Cico_tkb_na_N_000036_000000_202607270000_WV12.png",
    "lauf": "202607270000",
    "vorlauf_h": 36,
    "gueltig": "2026-07-28T12:00:00+00:00"
   }
  },
  {
   "type": "Feature",
   "geometry": {
    "type": "LineString",
    "coordinates": [
     [
      -46.7563,
      42.1206
     ],
     [
      -43.7232,
      40.4862
     ],
     [
      -42.9908,
      40.4993
     ],
     [
      -39.9963,
      39.552
     ],
     [
      -36.7692,
      40.1516
     ],
     [
      -35.2968,
      41.8046
     ]
    ]
   },
   "properties": {
    "typ": "kalt",
    "laenge_km": 1218.1,
    "punkte": 6,
    "quelle": "Deutscher Wetterdienst, ICON-Vorhersagekarte (tkb)",
    "hinweis": "aus der DWD-Karte vektorisiert (veraendert)",
    "quelle_url": "https://opendata.dwd.de/weather/charts/forecasts/icon/global/na/Z__C_EDZW_20260727033623_nwv01%2Cico_tkb_na_N_000036_000000_202607270000_WV12.png",
    "lauf": "202607270000",
    "vorlauf_h": 36,
    "gueltig": "2026-07-28T12:00:00+00:00"
   }
  },
  {
   "type": "Feature",
   "geometry": {
    "type": "LineString",
    "coordinates": [
     [
      30.9588,
      64.3066
     ],
     [
      33.5687,
      62.5588
     ],
     [
      34.7149,
      61.0359
     ],
     [
      34.6851,
      60.7373
     ],
     [
      35.3253,
      60.1023
     ],
     [
      36.3887,
      58.0668
     ],
     [
      36.3004,
      57.724
     ],
     [
      36.9649,
      55.2945
     ],
     [
      37.2658,
      53.1574
     ],
     [
      36.7768,
      48.8277
     ],
     [
      36.3632,
      47.6935
     ]
    ]
   },
   "properties": {
    "typ": "trog",
    "laenge_km": 2044.6,
    "punkte": 11,
    "quelle": "Deutscher Wetterdienst, ICON-Vorhersagekarte (tkb)",
    "hinweis": "aus der DWD-Karte vektorisiert (veraendert)",
    "quelle_url": "https://opendata.dwd.de/weather/charts/forecasts/icon/global/na/Z__C_EDZW_20260727033623_nwv01%2Cico_tkb_na_N_000036_000000_202607270000_WV12.png",
    "lauf": "202607270000",
    "vorlauf_h": 36,
    "gueltig": "2026-07-28T12:00:00+00:00"
   }
  },
  {
   "type": "Feature",
   "geometry": {
    "type": "LineString",
    "coordinates": [
     [
      47.0503,
      67.8077
     ],
     [
      48.2273,
      68.8432
     ],
     [
      49.3305,
      69.3354
     ],
     [
      49.7631,
      69.8802
     ],
     [
      50.8885,
      70.1571
     ],
     [
      58.9606,
      69.7593
     ],
     [
      61.3456,
      69.8499
     ],
     [
      62.3538,
      69.6861
     ],
     [
      63.8483,
      68.793
     ],
     [
      65.7991,
      68.1783
     ],
     [
      68.6034,
      66.8355
     ],
     [
      70.1493,
      66.4725
     ],
     [
      70.6393,
      66.1275
     ],
     [
      70.7169,
      65.495
     ],
     [
      72.2477,
      64.3057
     ]
    ]
   },
   "properties": {
    "typ": "warm",
    "laenge_km": 1584.8,
    "punkte": 15,
    "quelle": "Deutscher Wetterdienst, ICON-Vorhersagekarte (tkb)",
    "hinweis": "aus der DWD-Karte vektorisiert (veraendert)",
    "quelle_url": "https://opendata.dwd.de/weather/charts/forecasts/icon/global/na/Z__C_EDZW_20260727033623_nwv01%2Cico_tkb_na_N_000036_000000_202607270000_WV12.png",
    "lauf": "202607270000",
    "vorlauf_h": 36,
    "gueltig": "2026-07-28T12:00:00+00:00"
   }
  },
  {
   "type": "Feature",
   "geometry": {
    "type": "LineString",
    "coordinates": [
     [
      23.342,
      74.3225
     ],
     [
      18.2243,
      73.3486
     ],
     [
      15.0127,
      73.5113
     ],
     [
      12.8717,
      72.9713
     ],
     [
      8.7328,
      72.7539
     ],
     [
      3.8467,
      71.6676
     ],
     [
      -1.6239,
      69.8051
     ],
     [
      -1.3248,
      69.0069
     ],
     [
      -1.9396,
      68.6684
     ],
     [
      -2.2182,
      68.0613
     ],
     [
      -1.2863,
      67.4941
     ],
     [
      1.919,
      66.6124
     ]
    ]
   },
   "properties": {
    "typ": "okklusion",
    "laenge_km": 1545.1,
    "punkte": 12,
    "quelle": "Deutscher Wetterdienst, ICON-Vorhersagekarte (tkb)",
    "hinweis": "aus der DWD-Karte vektorisiert (veraendert)",
    "quelle_url": "https://opendata.dwd.de/weather/charts/forecasts/icon/global/na/Z__C_EDZW_20260727033623_nwv01%2Cico_tkb_na_N_000036_000000_202607270000_WV12.png",
    "lauf": "202607270000",
    "vorlauf_h": 36,
    "gueltig": "2026-07-28T12:00:00+00:00"
   }
  },
  {
   "type": "Feature",
   "geometry": {
    "type": "LineString",
    "coordinates": [
     [
      -30.6471,
      44.7679
     ],
     [
      -30.0274,
      43.627
     ],
     [
      -29.2284,
      43.006
     ],
     [
      -29.1708,
      42.7188
     ],
     [
      -29.3763,
      41.8886
     ],
     [
      -29.2881,
      40.4165
     ],
     [
      -28.9006,
      39.5908
     ],
     [
      -29.0131,
      39.0837
     ],
     [
      -29.517,
      38.5743
     ],
     [
      -29.8357,
      37.3064
     ]
    ]
   },
   "properties": {
    "typ": "warm",
    "laenge_km": 936.6,
    "punkte": 10,
    "quelle": "Deutscher Wetterdienst, ICON-Vorhersagekarte (tkb)",
    "hinweis": "aus der DWD-Karte vektorisiert (veraendert)",
    "quelle_url": "https://opendata.dwd.de/weather/charts/forecasts/icon/global/na/Z__C_EDZW_20260727033623_nwv01%2Cico_tkb_na_N_000036_000000_202607270000_WV12.png",
    "lauf": "202607270000",
    "vorlauf_h": 36,
    "gueltig": "2026-07-28T12:00:00+00:00"
   }
  },
  {
   "type": "Feature",
   "geometry": {
    "type": "LineString",
    "coordinates": [
     [
      49.1363,
      58.5418
     ],
     [
      48.1292,
      60.2883
     ],
     [
      49.0791,
      61.0519
     ],
     [
      49.2417,
      62.2082
     ]
    ]
   },
   "properties": {
    "typ": "warm",
    "laenge_km": 458.7,
    "punkte": 4,
    "quelle": "Deutscher Wetterdienst, ICON-Vorhersagekarte (tkb)",
    "hinweis": "aus der DWD-Karte vektorisiert (veraendert)",
    "quelle_url": "https://opendata.dwd.de/weather/charts/forecasts/icon/global/na/Z__C_EDZW_20260727033623_nwv01%2Cico_tkb_na_N_000036_000000_202607270000_WV12.png",
    "lauf": "202607270000",
    "vorlauf_h": 36,
    "gueltig": "2026-07-28T12:00:00+00:00"
   }
  },
  {
   "type": "Feature",
   "geometry": {
    "type": "LineString",
    "coordinates": [
     [
      49.2243,
      62.2868
     ],
     [
      48.2448,
      63.4319
     ],
     [
      48.0828,
      64.3444
     ],
     [
      47.0164,
      64.7662
     ],
     [
      46.5859,
      65.1834
     ],
     [
      46.2329,
      66.1332
     ],
     [
      46.5553,
      66.8843
     ]
    ]
   },
   "properties": {
    "typ": "kalt",
    "laenge_km": 574.4,
    "punkte": 7,
    "quelle": "Deutscher Wetterdienst, ICON-Vorhersagekarte (tkb)",
    "hinweis": "aus der DWD-Karte vektorisiert (veraendert)",
    "quelle_url": "https://opendata.dwd.de/weather/charts/forecasts/icon/global/na/Z__C_EDZW_20260727033623_nwv01%2Cico_tkb_na_N_000036_000000_202607270000_WV12.png",
    "lauf": "202607270000",
    "vorlauf_h": 36,
    "gueltig": "2026-07-28T12:00:00+00:00"
   }
  },
  {
   "type": "Feature",
   "geometry": {
    "type": "LineString",
    "coordinates": [
     [
      24.6245,
      61.7484
     ],
     [
      24.9994,
      60.0365
     ],
     [
      24.853,
      59.5418
     ],
     [
      25.284,
      59.0839
     ],
     [
      25.3222,
      58.7366
     ],
     [
      24.4169,
      58.0107
     ],
     [
      24.2875,
      57.0704
     ],
     [
      23.3747,
      56.6319
     ],
     [
      21.9759,
      55.3627
     ]
    ]
   },
   "properties": {
    "typ": "okklusion",
    "laenge_km": 836.9,
    "punkte": 9,
    "quelle": "Deutscher Wetterdienst, ICON-Vorhersagekarte (tkb)",
    "hinweis": "aus der DWD-Karte vektorisiert (veraendert)",
    "quelle_url": "https://opendata.dwd.de/weather/charts/forecasts/icon/global/na/Z__C_EDZW_20260727033623_nwv01%2Cico_tkb_na_N_000036_000000_202607270000_WV12.png",
    "lauf": "202607270000",
    "vorlauf_h": 36,
    "gueltig": "2026-07-28T12:00:00+00:00"
   }
  },
  {
   "type": "Feature",
   "geometry": {
    "type": "LineString",
    "coordinates": [
     [
      -12.3029,
      59.2141
     ],
     [
      -17.4324,
      58.5238
     ],
     [
      -18.975,
      58.9664
     ],
     [
      -20.8056,
      58.737
     ],
     [
      -21.7462,
      59.2145
     ],
     [
      -23.7489,
      59.6727
     ]
    ]
   },
   "properties": {
    "typ": "okklusion",
    "laenge_km": 760.4,
    "punkte": 6,
    "quelle": "Deutscher Wetterdienst, ICON-Vorhersagekarte (tkb)",
    "hinweis": "aus der DWD-Karte vektorisiert (veraendert)",
    "quelle_url": "https://opendata.dwd.de/weather/charts/forecasts/icon/global/na/Z__C_EDZW_20260727033623_nwv01%2Cico_tkb_na_N_000036_000000_202607270000_WV12.png",
    "lauf": "202607270000",
    "vorlauf_h": 36,
    "gueltig": "2026-07-28T12:00:00+00:00"
   }
  },
  {
   "type": "Feature",
   "geometry": {
    "type": "LineString",
    "coordinates": [
     [
      49.9957,
      57.4581
     ],
     [
      51.1928,
      56.5437
     ],
     [
      52.5687,
      55.9337
     ],
     [
      53.5804,
      53.4044
     ],
     [
      54.2963,
      52.6218
     ],
     [
      53.8289,
      51.8662
     ]
    ]
   },
   "properties": {
    "typ": "kalt",
    "laenge_km": 755.3,
    "punkte": 6,
    "quelle": "Deutscher Wetterdienst, ICON-Vorhersagekarte (tkb)",
    "hinweis": "aus der DWD-Karte vektorisiert (veraendert)",
    "quelle_url": "https://opendata.dwd.de/weather/charts/forecasts/icon/global/na/Z__C_EDZW_20260727033623_nwv01%2Cico_tkb_na_N_000036_000000_202607270000_WV12.png",
    "lauf": "202607270000",
    "vorlauf_h": 36,
    "gueltig": "2026-07-28T12:00:00+00:00"
   }
  },
  {
   "type": "Feature",
   "geometry": {
    "type": "LineString",
    "coordinates": [
     [
      15.4388,
      39.8415
     ],
     [
      14.6204,
      38.6821
     ],
     [
      14.2159,
      37.6486
     ],
     [
      14.149,
      36.226
     ],
     [
      14.6214,
      35.0688
     ]
    ]
   },
   "properties": {
    "typ": "trog",
    "laenge_km": 594.4,
    "punkte": 5,
    "quelle": "Deutscher Wetterdienst, ICON-Vorhersagekarte (tkb)",
    "hinweis": "aus der DWD-Karte vektorisiert (veraendert)",
    "quelle_url": "https://opendata.dwd.de/weather/charts/forecasts/icon/global/na/Z__C_EDZW_20260727033623_nwv01%2Cico_tkb_na_N_000036_000000_202607270000_WV12.png",
    "lauf": "202607270000",
    "vorlauf_h": 36,
    "gueltig": "2026-07-28T12:00:00+00:00"
   }
  },
  {
   "type": "Feature",
   "geometry": {
    "type": "LineString",
    "coordinates": [
     [
      30.3421,
      71.8297
     ],
     [
      26.6775,
      70.4605
     ],
     [
      24.8809,
      69.321
     ],
     [
      23.5559,
      68.849
     ],
     [
      23.4183,
      68.3905
     ],
     [
      24.1343,
      67.7966
     ],
     [
      23.9895,
      67.5752
     ],
     [
      24.2046,
      66.4988
     ]
    ]
   },
   "properties": {
    "typ": "warm",
    "laenge_km": 735.2,
    "punkte": 8,
    "quelle": "Deutscher Wetterdienst, ICON-Vorhersagekarte (tkb)",
    "hinweis": "aus der DWD-Karte vektorisiert (veraendert)",
    "quelle_url": "https://opendata.dwd.de/weather/charts/forecasts/icon/global/na/Z__C_EDZW_20260727033623_nwv01%2Cico_tkb_na_N_000036_000000_202607270000_WV12.png",
    "lauf": "202607270000",
    "vorlauf_h": 36,
    "gueltig": "2026-07-28T12:00:00+00:00"
   }
  },
  {
   "type": "Feature",
   "geometry": {
    "type": "LineString",
    "coordinates": [
     [
      25.4581,
      74.6587
     ],
     [
      31.1022,
      75.5326
     ],
     [
      33.9635,
      76.4468
     ],
     [
      38.1023,
      76.5624
     ],
     [
      42.2984,
      77.1593
     ]
    ]
   },
   "properties": {
    "typ": "warm",
    "laenge_km": 584.0,
    "punkte": 5,
    "quelle": "Deutscher Wetterdienst, ICON-Vorhersagekarte (tkb)",
    "hinweis": "aus der DWD-Karte vektorisiert (veraendert)",
    "quelle_url": "https://opendata.dwd.de/weather/charts/forecasts/icon/global/na/Z__C_EDZW_20260727033623_nwv01%2Cico_tkb_na_N_000036_000000_202607270000_WV12.png",
    "lauf": "202607270000",
    "vorlauf_h": 36,
    "gueltig": "2026-07-28T12:00:00+00:00"
   }
  }
 ],
 "properties": {
  "lizenz": "GeoNutzV",
  "profil": "vorhersage",
  "quelle_url": "https://opendata.dwd.de/weather/charts/forecasts/icon/global/na/Z__C_EDZW_20260727033623_nwv01%2Cico_tkb_na_N_000036_000000_202607270000_WV12.png",
  "lauf": "202607270000",
  "vorlauf_h": 36,
  "gueltig": "2026-07-28T12:00:00+00:00",
  "copyright": "\u00a9 Deutscher Wetterdienst, vektorisiert und damit veraendert"
 }
}