{
 "type": "FeatureCollection",
 "features": [
  {
   "type": "Feature",
   "geometry": {
    "type": "LineString",
    "coordinates": [
     [
      -44.2766,
      45.0148
     ],
     [
      -43.047,
      46.2746
     ],
     [
      -42.9877,
      46.7552
     ],
     [
      -42.6401,
      47.1543
     ],
     [
      -41.8777,
      47.4045
     ],
     [
      -39.5479,
      49.1445
     ]
    ]
   },
   "properties": {
    "typ": "warm",
    "laenge_km": 615.4,
    "punkte": 6,
    "quelle": "Deutscher Wetterdienst, ICON-Vorhersagekarte (tkb)",
    "hinweis": "aus der DWD-Karte vektorisiert (veraendert)",
    "quelle_url": "https://opendata.dwd.de/weather/charts/forecasts/icon/global/na/Z__C_EDZW_20260726033023_nwv01%2Cico_tkb_na_N_000036_000000_202607260000_WV12.png",
    "lauf": "202607260000",
    "vorlauf_h": 36,
    "gueltig": "2026-07-27T12:00:00+00:00"
   }
  },
  {
   "type": "Feature",
   "geometry": {
    "type": "LineString",
    "coordinates": [
     [
      -39.4964,
      49.1841
     ],
     [
      -36.9169,
      50.5029
     ],
     [
      -35.3436,
      50.7104
     ],
     [
      -34.1581,
      51.3044
     ],
     [
      -29.4498,
      52.009
     ],
     [
      -27.7437,
      51.9687
     ],
     [
      -26.8336,
      52.462
     ],
     [
      -24.1107,
      53.1815
     ]
    ]
   },
   "properties": {
    "typ": "kalt",
    "laenge_km": 1260.4,
    "punkte": 8,
    "quelle": "Deutscher Wetterdienst, ICON-Vorhersagekarte (tkb)",
    "hinweis": "aus der DWD-Karte vektorisiert (veraendert)",
    "quelle_url": "https://opendata.dwd.de/weather/charts/forecasts/icon/global/na/Z__C_EDZW_20260726033023_nwv01%2Cico_tkb_na_N_000036_000000_202607260000_WV12.png",
    "lauf": "202607260000",
    "vorlauf_h": 36,
    "gueltig": "2026-07-27T12:00:00+00:00"
   }
  },
  {
   "type": "Feature",
   "geometry": {
    "type": "LineString",
    "coordinates": [
     [
      -24.0371,
      53.2115
     ],
     [
      -21.5094,
      53.7391
     ],
     [
      -20.3208,
      54.3467
     ],
     [
      -18.6579,
      54.158
     ],
     [
      -12.9217,
      54.5285
     ],
     [
      -11.1936,
      53.8974
     ],
     [
      -9.6402,
      53.8971
     ]
    ]
   },
   "properties": {
    "typ": "warm",
    "laenge_km": 1072.4,
    "punkte": 7,
    "quelle": "Deutscher Wetterdienst, ICON-Vorhersagekarte (tkb)",
    "hinweis": "aus der DWD-Karte vektorisiert (veraendert)",
    "quelle_url": "https://opendata.dwd.de/weather/charts/forecasts/icon/global/na/Z__C_EDZW_20260726033023_nwv01%2Cico_tkb_na_N_000036_000000_202607260000_WV12.png",
    "lauf": "202607260000",
    "vorlauf_h": 36,
    "gueltig": "2026-07-27T12:00:00+00:00"
   }
  },
  {
   "type": "Feature",
   "geometry": {
    "type": "LineString",
    "coordinates": [
     [
      -9.5546,
      53.9152
     ],
     [
      -6.6548,
      54.9797
     ],
     [
      -6.1678,
      56.5287
     ],
     [
      -6.3352,
      56.8417
     ]
    ]
   },
   "properties": {
    "typ": "kalt",
    "laenge_km": 462.5,
    "punkte": 4,
    "quelle": "Deutscher Wetterdienst, ICON-Vorhersagekarte (tkb)",
    "hinweis": "aus der DWD-Karte vektorisiert (veraendert)",
    "quelle_url": "https://opendata.dwd.de/weather/charts/forecasts/icon/global/na/Z__C_EDZW_20260726033023_nwv01%2Cico_tkb_na_N_000036_000000_202607260000_WV12.png",
    "lauf": "202607260000",
    "vorlauf_h": 36,
    "gueltig": "2026-07-27T12:00:00+00:00"
   }
  },
  {
   "type": "Feature",
   "geometry": {
    "type": "LineString",
    "coordinates": [
     [
      -6.3635,
      56.8939
     ],
     [
      -7.6047,
      57.7725
     ],
     [
      -9.0284,
      57.6342
     ],
     [
      -10.6211,
      58.2006
     ],
     [
      -11.9523,
      58.0426
     ],
     [
      -13.1347,
      58.2571
     ],
     [
      -15.3392,
      59.1867
     ],
     [
      -16.0038,
      59.7585
     ],
     [
      -16.5437,
      59.9323
     ],
     [
      -17.7252,
      59.8757
     ],
     [
      -19.6927,
      60.2825
     ],
     [
      -21.5355,
      59.6699
     ],
     [
      -23.2059,
      59.458
     ]
    ]
   },
   "properties": {
    "typ": "okklusion",
    "laenge_km": 1226.1,
    "punkte": 13,
    "quelle": "Deutscher Wetterdienst, ICON-Vorhersagekarte (tkb)",
    "hinweis": "aus der DWD-Karte vektorisiert (veraendert)",
    "quelle_url": "https://opendata.dwd.de/weather/charts/forecasts/icon/global/na/Z__C_EDZW_20260726033023_nwv01%2Cico_tkb_na_N_000036_000000_202607260000_WV12.png",
    "lauf": "202607260000",
    "vorlauf_h": 36,
    "gueltig": "2026-07-27T12:00:00+00:00"
   }
  },
  {
   "type": "Feature",
   "geometry": {
    "type": "LineString",
    "coordinates": [
     [
      4.2483,
      67.642
     ],
     [
      4.2282,
      68.2725
     ],
     [
      3.8196,
      68.6015
     ],
     [
      3.8557,
      69.0061
     ],
     [
      5.7962,
      69.7031
     ],
     [
      6.044,
      70.1126
     ],
     [
      5.9707,
      70.4568
     ],
     [
      11.4067,
      71.9444
     ],
     [
      12.0215,
      72.4599
     ],
     [
      12.8342,
      72.7398
     ],
     [
      14.0563,
      72.951
     ],
     [
      16.6102,
      72.8825
     ],
     [
      18.8863,
      73.4378
     ],
     [
      25.4514,
      73.3338
     ]
    ]
   },
   "properties": {
    "typ": "okklusion",
    "laenge_km": 1196.8,
    "punkte": 14,
    "quelle": "Deutscher Wetterdienst, ICON-Vorhersagekarte (tkb)",
    "hinweis": "aus der DWD-Karte vektorisiert (veraendert)",
    "quelle_url": "https://opendata.dwd.de/weather/charts/forecasts/icon/global/na/Z__C_EDZW_20260726033023_nwv01%2Cico_tkb_na_N_000036_000000_202607260000_WV12.png",
    "lauf": "202607260000",
    "vorlauf_h": 36,
    "gueltig": "2026-07-27T12:00:00+00:00"
   }
  },
  {
   "type": "Feature",
   "geometry": {
    "type": "LineString",
    "coordinates": [
     [
      25.6463,
      73.3184
     ],
     [
      28.7733,
      72.9178
     ],
     [
      31.959,
      71.697
     ],
     [
      31.4049,
      70.7752
     ],
     [
      31.7102,
      69.6226
     ],
     [
      31.5214,
      68.3565
     ],
     [
      32.0353,
      67.6043
     ],
     [
      30.5711,
      66.1195
     ]
    ]
   },
   "properties": {
    "typ": "kalt",
    "laenge_km": 980.4,
    "punkte": 8,
    "quelle": "Deutscher Wetterdienst, ICON-Vorhersagekarte (tkb)",
    "hinweis": "aus der DWD-Karte vektorisiert (veraendert)",
    "quelle_url": "https://opendata.dwd.de/weather/charts/forecasts/icon/global/na/Z__C_EDZW_20260726033023_nwv01%2Cico_tkb_na_N_000036_000000_202607260000_WV12.png",
    "lauf": "202607260000",
    "vorlauf_h": 36,
    "gueltig": "2026-07-27T12:00:00+00:00"
   }
  },
  {
   "type": "Feature",
   "geometry": {
    "type": "LineString",
    "coordinates": [
     [
      30.5223,
      66.0663
     ],
     [
      29.8613,
      65.3217
     ],
     [
      28.3242,
      64.8275
     ],
     [
      28.0921,
      63.7939
     ],
     [
      25.7083,
      61.7259
     ],
     [
      24.6996,
      61.2216
     ],
     [
      24.5524,
      60.7239
     ],
     [
      24.8982,
      60.2787
     ],
     [
      24.7753,
      59.6092
     ]
    ]
   },
   "properties": {
    "typ": "warm",
    "laenge_km": 859.6,
    "punkte": 9,
    "quelle": "Deutscher Wetterdienst, ICON-Vorhersagekarte (tkb)",
    "hinweis": "aus der DWD-Karte vektorisiert (veraendert)",
    "quelle_url": "https://opendata.dwd.de/weather/charts/forecasts/icon/global/na/Z__C_EDZW_20260726033023_nwv01%2Cico_tkb_na_N_000036_000000_202607260000_WV12.png",
    "lauf": "202607260000",
    "vorlauf_h": 36,
    "gueltig": "2026-07-27T12:00:00+00:00"
   }
  },
  {
   "type": "Feature",
   "geometry": {
    "type": "LineString",
    "coordinates": [
     [
      24.7477,
      59.5558
     ],
     [
      24.6046,
      58.8352
     ],
     [
      25.123,
      58.1396
     ],
     [
      24.607,
      57.3075
     ],
     [
      24.6676,
      55.0578
     ],
     [
      24.2306,
      53.6265
     ],
     [
      24.3367,
      53.0049
     ],
     [
      21.9623,
      51.1662
     ],
     [
      20.5167,
      50.3281
     ],
     [
      20.0097,
      49.6954
     ],
     [
      18.2173,
      49.3514
     ]
    ]
   },
   "properties": {
    "typ": "kalt",
    "laenge_km": 1440.0,
    "punkte": 11,
    "quelle": "Deutscher Wetterdienst, ICON-Vorhersagekarte (tkb)",
    "hinweis": "aus der DWD-Karte vektorisiert (veraendert)",
    "quelle_url": "https://opendata.dwd.de/weather/charts/forecasts/icon/global/na/Z__C_EDZW_20260726033023_nwv01%2Cico_tkb_na_N_000036_000000_202607260000_WV12.png",
    "lauf": "202607260000",
    "vorlauf_h": 36,
    "gueltig": "2026-07-27T12:00:00+00:00"
   }
  },
  {
   "type": "Feature",
   "geometry": {
    "type": "LineString",
    "coordinates": [
     [
      -62.0071,
      42.3338
     ],
     [
      -61.2847,
      42.6811
     ],
     [
      -60.9151,
      43.1676
     ],
     [
      -60.2387,
      43.3655
     ],
     [
      -59.5059,
      43.2244
     ],
     [
      -55.8162,
      43.6973
     ],
     [
      -51.8621,
      42.452
     ],
     [
      -50.7643,
      42.6905
     ],
     [
      -49.7023,
      42.3592
     ],
     [
      -48.8505,
      42.4483
     ]
    ]
   },
   "properties": {
    "typ": "warm",
    "laenge_km": 1230.6,
    "punkte": 10,
    "quelle": "Deutscher Wetterdienst, ICON-Vorhersagekarte (tkb)",
    "hinweis": "aus der DWD-Karte vektorisiert (veraendert)",
    "quelle_url": "https://opendata.dwd.de/weather/charts/forecasts/icon/global/na/Z__C_EDZW_20260726033023_nwv01%2Cico_tkb_na_N_000036_000000_202607260000_WV12.png",
    "lauf": "202607260000",
    "vorlauf_h": 36,
    "gueltig": "2026-07-27T12:00:00+00:00"
   }
  },
  {
   "type": "Feature",
   "geometry": {
    "type": "LineString",
    "coordinates": [
     [
      -48.7582,
      42.4652
     ],
     [
      -46.7091,
      42.8092
     ],
     [
      -46.2396,
      43.4195
     ],
     [
      -44.7297,
      44.5619
     ]
    ]
   },
   "properties": {
    "typ": "kalt",
    "laenge_km": 439.7,
    "punkte": 4,
    "quelle": "Deutscher Wetterdienst, ICON-Vorhersagekarte (tkb)",
    "hinweis": "aus der DWD-Karte vektorisiert (veraendert)",
    "quelle_url": "https://opendata.dwd.de/weather/charts/forecasts/icon/global/na/Z__C_EDZW_20260726033023_nwv01%2Cico_tkb_na_N_000036_000000_202607260000_WV12.png",
    "lauf": "202607260000",
    "vorlauf_h": 36,
    "gueltig": "2026-07-27T12:00:00+00:00"
   }
  },
  {
   "type": "Feature",
   "geometry": {
    "type": "LineString",
    "coordinates": [
     [
      42.4217,
      57.841
     ],
     [
      42.7084,
      58.5893
     ],
     [
      42.4228,
      59.0741
     ],
     [
      42.4619,
      59.5179
     ],
     [
      43.8814,
      60.3076
     ],
     [
      44.5881,
      61.2128
     ],
     [
      46.5059,
      62.4849
     ],
     [
      46.694,
      62.9779
     ],
     [
      47.2145,
      63.292
     ],
     [
      51.7482,
      63.8905
     ],
     [
      54.4573,
      64.012
     ],
     [
      55.9199,
      64.3297
     ],
     [
      57.0227,
      64.3185
     ],
     [
      58.0767,
      63.9006
     ],
     [
      61.766,
      63.4441
     ]
    ]
   },
   "properties": {
    "typ": "warm",
    "laenge_km": 1522.9,
    "punkte": 15,
    "quelle": "Deutscher Wetterdienst, ICON-Vorhersagekarte (tkb)",
    "hinweis": "aus der DWD-Karte vektorisiert (veraendert)",
    "quelle_url": "https://opendata.dwd.de/weather/charts/forecasts/icon/global/na/Z__C_EDZW_20260726033023_nwv01%2Cico_tkb_na_N_000036_000000_202607260000_WV12.png",
    "lauf": "202607260000",
    "vorlauf_h": 36,
    "gueltig": "2026-07-27T12:00:00+00:00"
   }
  },
  {
   "type": "Feature",
   "geometry": {
    "type": "LineString",
    "coordinates": [
     [
      49.2509,
      48.3785
     ],
     [
      49.6633,
      49.365
     ],
     [
      50.2108,
      49.9532
     ],
     [
      49.7691,
      51.0084
     ],
     [
      49.6382,
      52.6545
     ],
     [
      49.9301,
      53.2005
     ],
     [
      49.8725,
      53.5766
     ],
     [
      46.6351,
      56.5411
     ],
     [
      44.0409,
      57.0774
     ],
     [
      42.6795,
      57.0413
     ]
    ]
   },
   "properties": {
    "typ": "kalt",
    "laenge_km": 1320.5,
    "punkte": 10,
    "quelle": "Deutscher Wetterdienst, ICON-Vorhersagekarte (tkb)",
    "hinweis": "aus der DWD-Karte vektorisiert (veraendert)",
    "quelle_url": "https://opendata.dwd.de/weather/charts/forecasts/icon/global/na/Z__C_EDZW_20260726033023_nwv01%2Cico_tkb_na_N_000036_000000_202607260000_WV12.png",
    "lauf": "202607260000",
    "vorlauf_h": 36,
    "gueltig": "2026-07-27T12:00:00+00:00"
   }
  },
  {
   "type": "Feature",
   "geometry": {
    "type": "LineString",
    "coordinates": [
     [
      26.1463,
      73.3985
     ],
     [
      27.5918,
      73.9431
     ],
     [
      28.7293,
      74.6992
     ],
     [
      32.5112,
      75.0138
     ],
     [
      39.13,
      76.0315
     ],
     [
      40.4375,
      76.4593
     ],
     [
      43.412,
      76.5795
     ],
     [
      45.2654,
      76.2838
     ],
     [
      49.7519,
      76.052
     ]
    ]
   },
   "properties": {
    "typ": "warm",
    "laenge_km": 860.3,
    "punkte": 9,
    "quelle": "Deutscher Wetterdienst, ICON-Vorhersagekarte (tkb)",
    "hinweis": "aus der DWD-Karte vektorisiert (veraendert)",
    "quelle_url": "https://opendata.dwd.de/weather/charts/forecasts/icon/global/na/Z__C_EDZW_20260726033023_nwv01%2Cico_tkb_na_N_000036_000000_202607260000_WV12.png",
    "lauf": "202607260000",
    "vorlauf_h": 36,
    "gueltig": "2026-07-27T12:00:00+00:00"
   }
  },
  {
   "type": "Feature",
   "geometry": {
    "type": "LineString",
    "coordinates": [
     [
      40.5956,
      51.9833
     ],
     [
      40.0583,
      53.219
     ],
     [
      40.4443,
      53.8274
     ],
     [
      40.0318,
      54.5877
     ],
     [
      40.9192,
      55.3509
     ],
     [
      40.7648,
      56.158
     ],
     [
      41.63,
      56.9492
     ]
    ]
   },
   "properties": {
    "typ": "okklusion",
    "laenge_km": 610.4,
    "punkte": 7,
    "quelle": "Deutscher Wetterdienst, ICON-Vorhersagekarte (tkb)",
    "hinweis": "aus der DWD-Karte vektorisiert (veraendert)",
    "quelle_url": "https://opendata.dwd.de/weather/charts/forecasts/icon/global/na/Z__C_EDZW_20260726033023_nwv01%2Cico_tkb_na_N_000036_000000_202607260000_WV12.png",
    "lauf": "202607260000",
    "vorlauf_h": 36,
    "gueltig": "2026-07-27T12:00:00+00:00"
   }
  }
 ],
 "properties": {
  "lizenz": "GeoNutzV",
  "profil": "vorhersage",
  "quelle_url": "https://opendata.dwd.de/weather/charts/forecasts/icon/global/na/Z__C_EDZW_20260726033023_nwv01%2Cico_tkb_na_N_000036_000000_202607260000_WV12.png",
  "lauf": "202607260000",
  "vorlauf_h": 36,
  "gueltig": "2026-07-27T12:00:00+00:00",
  "copyright": "\u00a9 Deutscher Wetterdienst, vektorisiert und damit veraendert"
 }
}