{
 "type": "FeatureCollection",
 "features": [
  {
   "type": "Feature",
   "geometry": {
    "type": "LineString",
    "coordinates": [
     [
      -23.6881,
      45.3309
     ],
     [
      -20.9049,
      45.6678
     ],
     [
      -19.9113,
      45.4883
     ],
     [
      -13.1815,
      48.2048
     ],
     [
      -12.7378,
      48.837
     ],
     [
      -10.9075,
      50.2156
     ],
     [
      -9.0261,
      52.0501
     ],
     [
      -7.8746,
      52.6225
     ],
     [
      -7.8059,
      53.5325
     ],
     [
      -6.3847,
      55.026
     ],
     [
      -4.112,
      56.5002
     ],
     [
      -2.3925,
      57.0039
     ],
     [
      -2.1374,
      57.6487
     ],
     [
      -0.78,
      58.8023
     ],
     [
      -0.3663,
      59.4586
     ],
     [
      0.8333,
      60.1805
     ],
     [
      0.8006,
      60.9642
     ],
     [
      1.1456,
      61.3288
     ]
    ]
   },
   "properties": {
    "typ": "kalt",
    "laenge_km": 2817.1,
    "punkte": 18,
    "quelle": "Deutscher Wetterdienst, ICON-Vorhersagekarte (tkb)",
    "hinweis": "aus der DWD-Karte vektorisiert (veraendert)",
    "quelle_url": "https://opendata.dwd.de/weather/charts/forecasts/icon/global/na/Z__C_EDZW_20260726061237_nwv01%2Cico_tkb_na_N_000084_000000_202607260000_WV12.png",
    "lauf": "202607260000",
    "vorlauf_h": 84,
    "gueltig": "2026-07-29T12:00:00+00:00"
   }
  },
  {
   "type": "Feature",
   "geometry": {
    "type": "LineString",
    "coordinates": [
     [
      1.1274,
      61.3837
     ],
     [
      1.616,
      61.7012
     ],
     [
      1.7284,
      62.1037
     ],
     [
      2.6849,
      62.5602
     ],
     [
      4.7845,
      62.4437
     ]
    ]
   },
   "properties": {
    "typ": "warm",
    "laenge_km": 282.2,
    "punkte": 5,
    "quelle": "Deutscher Wetterdienst, ICON-Vorhersagekarte (tkb)",
    "hinweis": "aus der DWD-Karte vektorisiert (veraendert)",
    "quelle_url": "https://opendata.dwd.de/weather/charts/forecasts/icon/global/na/Z__C_EDZW_20260726061237_nwv01%2Cico_tkb_na_N_000084_000000_202607260000_WV12.png",
    "lauf": "202607260000",
    "vorlauf_h": 84,
    "gueltig": "2026-07-29T12:00:00+00:00"
   }
  },
  {
   "type": "Feature",
   "geometry": {
    "type": "LineString",
    "coordinates": [
     [
      4.9048,
      62.4488
     ],
     [
      6.9429,
      62.6299
     ],
     [
      7.5118,
      63.0354
     ],
     [
      7.8126,
      63.8276
     ]
    ]
   },
   "properties": {
    "typ": "kalt",
    "laenge_km": 262.4,
    "punkte": 4,
    "quelle": "Deutscher Wetterdienst, ICON-Vorhersagekarte (tkb)",
    "hinweis": "aus der DWD-Karte vektorisiert (veraendert)",
    "quelle_url": "https://opendata.dwd.de/weather/charts/forecasts/icon/global/na/Z__C_EDZW_20260726061237_nwv01%2Cico_tkb_na_N_000084_000000_202607260000_WV12.png",
    "lauf": "202607260000",
    "vorlauf_h": 84,
    "gueltig": "2026-07-29T12:00:00+00:00"
   }
  },
  {
   "type": "Feature",
   "geometry": {
    "type": "LineString",
    "coordinates": [
     [
      7.9351,
      63.886
     ],
     [
      7.8385,
      64.9558
     ],
     [
      5.8027,
      65.1326
     ],
     [
      4.6035,
      65.6574
     ],
     [
      3.7386,
      65.7912
     ],
     [
      1.1879,
      65.5355
     ],
     [
      -4.5532,
      65.5595
     ],
     [
      -8.6163,
      65.1095
     ],
     [
      -9.9118,
      64.7968
     ],
     [
      -11.067,
      63.8865
     ],
     [
      -12.9478,
      63.5478
     ],
     [
      -13.3849,
      62.7305
     ],
     [
      -14.6139,
      62.3543
     ],
     [
      -15.1935,
      61.4884
     ],
     [
      -15.211,
      59.9504
     ]
    ]
   },
   "properties": {
    "typ": "okklusion",
    "laenge_km": 1725.6,
    "punkte": 15,
    "quelle": "Deutscher Wetterdienst, ICON-Vorhersagekarte (tkb)",
    "hinweis": "aus der DWD-Karte vektorisiert (veraendert)",
    "quelle_url": "https://opendata.dwd.de/weather/charts/forecasts/icon/global/na/Z__C_EDZW_20260726061237_nwv01%2Cico_tkb_na_N_000084_000000_202607260000_WV12.png",
    "lauf": "202607260000",
    "vorlauf_h": 84,
    "gueltig": "2026-07-29T12:00:00+00:00"
   }
  },
  {
   "type": "Feature",
   "geometry": {
    "type": "LineString",
    "coordinates": [
     [
      -58.179,
      46.9299
     ],
     [
      -57.2607,
      47.5079
     ],
     [
      -56.9669,
      48.377
     ],
     [
      -56.0183,
      48.7834
     ],
     [
      -55.8492,
      49.4172
     ],
     [
      -55.371,
      49.8501
     ],
     [
      -53.8944,
      50.5046
     ],
     [
      -51.2722,
      51.1894
     ],
     [
      -50.0321,
      50.7524
     ],
     [
      -48.9777,
      50.8494
     ],
     [
      -46.181,
      49.6567
     ],
     [
      -45.1357,
      49.4478
     ],
     [
      -44.7707,
      48.5198
     ],
     [
      -43.8219,
      48.0681
     ],
     [
      -43.7446,
      47.2649
     ],
     [
      -43.3129,
      46.2843
     ]
    ]
   },
   "properties": {
    "typ": "okklusion",
    "laenge_km": 1705.2,
    "punkte": 16,
    "quelle": "Deutscher Wetterdienst, ICON-Vorhersagekarte (tkb)",
    "hinweis": "aus der DWD-Karte vektorisiert (veraendert)",
    "quelle_url": "https://opendata.dwd.de/weather/charts/forecasts/icon/global/na/Z__C_EDZW_20260726061237_nwv01%2Cico_tkb_na_N_000084_000000_202607260000_WV12.png",
    "lauf": "202607260000",
    "vorlauf_h": 84,
    "gueltig": "2026-07-29T12:00:00+00:00"
   }
  },
  {
   "type": "Feature",
   "geometry": {
    "type": "LineString",
    "coordinates": [
     [
      -43.2976,
      46.2129
     ],
     [
      -42.7501,
      44.2777
     ],
     [
      -42.1195,
      43.5506
     ],
     [
      -42.0883,
      43.0906
     ],
     [
      -42.3543,
      42.6751
     ],
     [
      -42.0557,
      40.9437
     ]
    ]
   },
   "properties": {
    "typ": "warm",
    "laenge_km": 628.4,
    "punkte": 6,
    "quelle": "Deutscher Wetterdienst, ICON-Vorhersagekarte (tkb)",
    "hinweis": "aus der DWD-Karte vektorisiert (veraendert)",
    "quelle_url": "https://opendata.dwd.de/weather/charts/forecasts/icon/global/na/Z__C_EDZW_20260726061237_nwv01%2Cico_tkb_na_N_000084_000000_202607260000_WV12.png",
    "lauf": "202607260000",
    "vorlauf_h": 84,
    "gueltig": "2026-07-29T12:00:00+00:00"
   }
  },
  {
   "type": "Feature",
   "geometry": {
    "type": "LineString",
    "coordinates": [
     [
      -42.0442,
      40.8749
     ],
     [
      -41.7098,
      39.0692
     ],
     [
      -41.9508,
      38.3602
     ],
     [
      -41.5266,
      37.8545
     ],
     [
      -41.1056,
      36.0696
     ],
     [
      -40.3642,
      34.3719
     ],
     [
      -40.3246,
      33.6859
     ],
     [
      -39.613,
      33.2493
     ],
     [
      -38.8363,
      32.3273
     ]
    ]
   },
   "properties": {
    "typ": "kalt",
    "laenge_km": 1083.6,
    "punkte": 9,
    "quelle": "Deutscher Wetterdienst, ICON-Vorhersagekarte (tkb)",
    "hinweis": "aus der DWD-Karte vektorisiert (veraendert)",
    "quelle_url": "https://opendata.dwd.de/weather/charts/forecasts/icon/global/na/Z__C_EDZW_20260726061237_nwv01%2Cico_tkb_na_N_000084_000000_202607260000_WV12.png",
    "lauf": "202607260000",
    "vorlauf_h": 84,
    "gueltig": "2026-07-29T12:00:00+00:00"
   }
  },
  {
   "type": "Feature",
   "geometry": {
    "type": "LineString",
    "coordinates": [
     [
      -33.0421,
      36.62
     ],
     [
      -32.2873,
      37.4365
     ],
     [
      -32.1541,
      38.2436
     ],
     [
      -31.1205,
      38.7084
     ],
     [
      -30.6744,
      39.2658
     ],
     [
      -29.056,
      39.4309
     ],
     [
      -27.7577,
      39.1791
     ],
     [
      -25.9273,
      37.6729
     ],
     [
      -26.1539,
      36.9518
     ],
     [
      -25.8023,
      36.1632
     ],
     [
      -27.093,
      33.9856
     ]
    ]
   },
   "properties": {
    "typ": "okklusion",
    "laenge_km": 1396.2,
    "punkte": 11,
    "quelle": "Deutscher Wetterdienst, ICON-Vorhersagekarte (tkb)",
    "hinweis": "aus der DWD-Karte vektorisiert (veraendert)",
    "quelle_url": "https://opendata.dwd.de/weather/charts/forecasts/icon/global/na/Z__C_EDZW_20260726061237_nwv01%2Cico_tkb_na_N_000084_000000_202607260000_WV12.png",
    "lauf": "202607260000",
    "vorlauf_h": 84,
    "gueltig": "2026-07-29T12:00:00+00:00"
   }
  },
  {
   "type": "Feature",
   "geometry": {
    "type": "LineString",
    "coordinates": [
     [
      -27.1373,
      33.9576
     ],
     [
      -28.1023,
      33.0441
     ],
     [
      -29.8536,
      31.9021
     ],
     [
      -33.1297,
      31.1721
     ],
     [
      -34.9504,
      31.0361
     ]
    ]
   },
   "properties": {
    "typ": "kalt",
    "laenge_km": 897.1,
    "punkte": 5,
    "quelle": "Deutscher Wetterdienst, ICON-Vorhersagekarte (tkb)",
    "hinweis": "aus der DWD-Karte vektorisiert (veraendert)",
    "quelle_url": "https://opendata.dwd.de/weather/charts/forecasts/icon/global/na/Z__C_EDZW_20260726061237_nwv01%2Cico_tkb_na_N_000084_000000_202607260000_WV12.png",
    "lauf": "202607260000",
    "vorlauf_h": 84,
    "gueltig": "2026-07-29T12:00:00+00:00"
   }
  },
  {
   "type": "Feature",
   "geometry": {
    "type": "LineString",
    "coordinates": [
     [
      -5.8808,
      70.8143
     ],
     [
      -5.1113,
      71.4227
     ],
     [
      -3.9252,
      71.8188
     ],
     [
      -3.8789,
      72.4779
     ],
     [
      -3.4537,
      72.688
     ],
     [
      -1.3945,
      72.883
     ],
     [
      1.3597,
      73.7317
     ],
     [
      6.1208,
      73.8803
     ],
     [
      14.3858,
      73.4674
     ],
     [
      15.6878,
      73.0859
     ],
     [
      16.6273,
      72.4157
     ],
     [
      19.0975,
      71.9627
     ],
     [
      19.4123,
      71.1281
     ],
     [
      21.8526,
      69.2784
     ],
     [
      21.6829,
      68.4142
     ],
     [
      23.3648,
      67.8084
     ],
     [
      23.2474,
      67.1165
     ],
     [
      24.2393,
      66.5539
     ],
     [
      26.7712,
      65.9791
     ]
    ]
   },
   "properties": {
    "typ": "okklusion",
    "laenge_km": 1982.3,
    "punkte": 19,
    "quelle": "Deutscher Wetterdienst, ICON-Vorhersagekarte (tkb)",
    "hinweis": "aus der DWD-Karte vektorisiert (veraendert)",
    "quelle_url": "https://opendata.dwd.de/weather/charts/forecasts/icon/global/na/Z__C_EDZW_20260726061237_nwv01%2Cico_tkb_na_N_000084_000000_202607260000_WV12.png",
    "lauf": "202607260000",
    "vorlauf_h": 84,
    "gueltig": "2026-07-29T12:00:00+00:00"
   }
  },
  {
   "type": "Feature",
   "geometry": {
    "type": "LineString",
    "coordinates": [
     [
      -43.2806,
      45.8869
     ],
     [
      -44.3431,
      44.4281
     ],
     [
      -46.3565,
      44.0168
     ]
    ]
   },
   "properties": {
    "typ": "kalt",
    "laenge_km": 367.7,
    "punkte": 3,
    "quelle": "Deutscher Wetterdienst, ICON-Vorhersagekarte (tkb)",
    "hinweis": "aus der DWD-Karte vektorisiert (veraendert)",
    "quelle_url": "https://opendata.dwd.de/weather/charts/forecasts/icon/global/na/Z__C_EDZW_20260726061237_nwv01%2Cico_tkb_na_N_000084_000000_202607260000_WV12.png",
    "lauf": "202607260000",
    "vorlauf_h": 84,
    "gueltig": "2026-07-29T12:00:00+00:00"
   }
  },
  {
   "type": "Feature",
   "geometry": {
    "type": "LineString",
    "coordinates": [
     [
      -46.4532,
      44.0026
     ],
     [
      -47.1285,
      43.9001
     ],
     [
      -48.1861,
      44.2011
     ],
     [
      -49.6101,
      43.7624
     ],
     [
      -52.9062,
      43.3553
     ],
     [
      -54.0756,
      43.4421
     ],
     [
      -54.9768,
      42.8703
     ],
     [
      -58.7088,
      41.8333
     ]
    ]
   },
   "properties": {
    "typ": "warm",
    "laenge_km": 1114.0,
    "punkte": 8,
    "quelle": "Deutscher Wetterdienst, ICON-Vorhersagekarte (tkb)",
    "hinweis": "aus der DWD-Karte vektorisiert (veraendert)",
    "quelle_url": "https://opendata.dwd.de/weather/charts/forecasts/icon/global/na/Z__C_EDZW_20260726061237_nwv01%2Cico_tkb_na_N_000084_000000_202607260000_WV12.png",
    "lauf": "202607260000",
    "vorlauf_h": 84,
    "gueltig": "2026-07-29T12:00:00+00:00"
   }
  },
  {
   "type": "Feature",
   "geometry": {
    "type": "LineString",
    "coordinates": [
     [
      45.2828,
      47.1635
     ],
     [
      45.8133,
      48.1104
     ],
     [
      46.4089,
      48.655
     ],
     [
      46.1727,
      49.4123
     ],
     [
      46.4598,
      50.639
     ],
     [
      46.4726,
      52.0743
     ],
     [
      46.9546,
      52.9151
     ],
     [
      46.3271,
      53.3929
     ],
     [
      44.5108,
      55.7198
     ],
     [
      44.2547,
      56.4731
     ],
     [
      42.5185,
      56.9035
     ],
     [
      40.2566,
      57.0782
     ]
    ]
   },
   "properties": {
    "typ": "kalt",
    "laenge_km": 1441.1,
    "punkte": 12,
    "quelle": "Deutscher Wetterdienst, ICON-Vorhersagekarte (tkb)",
    "hinweis": "aus der DWD-Karte vektorisiert (veraendert)",
    "quelle_url": "https://opendata.dwd.de/weather/charts/forecasts/icon/global/na/Z__C_EDZW_20260726061237_nwv01%2Cico_tkb_na_N_000084_000000_202607260000_WV12.png",
    "lauf": "202607260000",
    "vorlauf_h": 84,
    "gueltig": "2026-07-29T12:00:00+00:00"
   }
  },
  {
   "type": "Feature",
   "geometry": {
    "type": "LineString",
    "coordinates": [
     [
      56.9018,
      74.3333
     ],
     [
      47.8781,
      74.0508
     ],
     [
      46.4641,
      73.332
     ],
     [
      42.6131,
      72.2855
     ],
     [
      39.4352,
      71.0658
     ],
     [
      36.9629,
      70.5202
     ],
     [
      36.8039,
      69.7748
     ],
     [
      37.0973,
      69.5946
     ],
     [
      37.0164,
      69.1588
     ],
     [
      38.1471,
      67.8477
     ],
     [
      37.9978,
      67.6194
     ],
     [
      38.4932,
      67.1299
     ],
     [
      43.158,
      66.2311
     ]
    ]
   },
   "properties": {
    "typ": "warm",
    "laenge_km": 1522.3,
    "punkte": 13,
    "quelle": "Deutscher Wetterdienst, ICON-Vorhersagekarte (tkb)",
    "hinweis": "aus der DWD-Karte vektorisiert (veraendert)",
    "quelle_url": "https://opendata.dwd.de/weather/charts/forecasts/icon/global/na/Z__C_EDZW_20260726061237_nwv01%2Cico_tkb_na_N_000084_000000_202607260000_WV12.png",
    "lauf": "202607260000",
    "vorlauf_h": 84,
    "gueltig": "2026-07-29T12:00:00+00:00"
   }
  },
  {
   "type": "Feature",
   "geometry": {
    "type": "LineString",
    "coordinates": [
     [
      28.0571,
      65.5775
     ],
     [
      31.1068,
      64.9465
     ],
     [
      32.6151,
      64.8738
     ],
     [
      33.6377,
      64.3199
     ],
     [
      39.8425,
      62.3575
     ],
     [
      40.4682,
      60.3208
     ]
    ]
   },
   "properties": {
    "typ": "kalt",
    "laenge_km": 962.2,
    "punkte": 6,
    "quelle": "Deutscher Wetterdienst, ICON-Vorhersagekarte (tkb)",
    "hinweis": "aus der DWD-Karte vektorisiert (veraendert)",
    "quelle_url": "https://opendata.dwd.de/weather/charts/forecasts/icon/global/na/Z__C_EDZW_20260726061237_nwv01%2Cico_tkb_na_N_000084_000000_202607260000_WV12.png",
    "lauf": "202607260000",
    "vorlauf_h": 84,
    "gueltig": "2026-07-29T12:00:00+00:00"
   }
  },
  {
   "type": "Feature",
   "geometry": {
    "type": "LineString",
    "coordinates": [
     [
      40.4118,
      60.273
     ],
     [
      40.193,
      59.3148
     ],
     [
      39.0634,
      58.5074
     ],
     [
      39.075,
      58.0654
     ],
     [
      39.4922,
      57.5656
     ],
     [
      39.3819,
      57.3484
     ]
    ]
   },
   "properties": {
    "typ": "warm",
    "laenge_km": 374.5,
    "punkte": 6,
    "quelle": "Deutscher Wetterdienst, ICON-Vorhersagekarte (tkb)",
    "hinweis": "aus der DWD-Karte vektorisiert (veraendert)",
    "quelle_url": "https://opendata.dwd.de/weather/charts/forecasts/icon/global/na/Z__C_EDZW_20260726061237_nwv01%2Cico_tkb_na_N_000084_000000_202607260000_WV12.png",
    "lauf": "202607260000",
    "vorlauf_h": 84,
    "gueltig": "2026-07-29T12:00:00+00:00"
   }
  },
  {
   "type": "Feature",
   "geometry": {
    "type": "LineString",
    "coordinates": [
     [
      44.2813,
      65.7915
     ],
     [
      46.4265,
      65.0925
     ],
     [
      48.4163,
      65.1653
     ],
     [
      49.4384,
      64.8907
     ],
     [
      51.6157,
      64.8448
     ],
     [
      56.631,
      63.9254
     ],
     [
      58.6287,
      62.022
     ]
    ]
   },
   "properties": {
    "typ": "kalt",
    "laenge_km": 926.1,
    "punkte": 7,
    "quelle": "Deutscher Wetterdienst, ICON-Vorhersagekarte (tkb)",
    "hinweis": "aus der DWD-Karte vektorisiert (veraendert)",
    "quelle_url": "https://opendata.dwd.de/weather/charts/forecasts/icon/global/na/Z__C_EDZW_20260726061237_nwv01%2Cico_tkb_na_N_000084_000000_202607260000_WV12.png",
    "lauf": "202607260000",
    "vorlauf_h": 84,
    "gueltig": "2026-07-29T12:00:00+00:00"
   }
  },
  {
   "type": "Feature",
   "geometry": {
    "type": "LineString",
    "coordinates": [
     [
      38.7602,
      48.9657
     ],
     [
      39.2791,
      50.3305
     ],
     [
      39.3975,
      51.4341
     ],
     [
      39.881,
      52.1768
     ],
     [
      39.3556,
      52.9071
     ],
     [
      39.7362,
      53.6365
     ],
     [
      38.84,
      54.7894
     ],
     [
      38.7126,
      56.1218
     ]
    ]
   },
   "properties": {
    "typ": "okklusion",
    "laenge_km": 883.7,
    "punkte": 8,
    "quelle": "Deutscher Wetterdienst, ICON-Vorhersagekarte (tkb)",
    "hinweis": "aus der DWD-Karte vektorisiert (veraendert)",
    "quelle_url": "https://opendata.dwd.de/weather/charts/forecasts/icon/global/na/Z__C_EDZW_20260726061237_nwv01%2Cico_tkb_na_N_000084_000000_202607260000_WV12.png",
    "lauf": "202607260000",
    "vorlauf_h": 84,
    "gueltig": "2026-07-29T12:00:00+00:00"
   }
  },
  {
   "type": "Feature",
   "geometry": {
    "type": "LineString",
    "coordinates": [
     [
      7.1796,
      62.6917
     ],
     [
      7.5722,
      62.4205
     ],
     [
      7.6299,
      61.8072
     ],
     [
      8.2653,
      61.1503
     ],
     [
      7.7472,
      60.4747
     ],
     [
      7.8987,
      59.9792
     ],
     [
      9.0429,
      58.9478
     ],
     [
      11.9501,
      57.6761
     ],
     [
      12.1795,
      56.5267
     ]
    ]
   },
   "properties": {
    "typ": "warm",
    "laenge_km": 847.9,
    "punkte": 9,
    "quelle": "Deutscher Wetterdienst, ICON-Vorhersagekarte (tkb)",
    "hinweis": "aus der DWD-Karte vektorisiert (veraendert)",
    "quelle_url": "https://opendata.dwd.de/weather/charts/forecasts/icon/global/na/Z__C_EDZW_20260726061237_nwv01%2Cico_tkb_na_N_000084_000000_202607260000_WV12.png",
    "lauf": "202607260000",
    "vorlauf_h": 84,
    "gueltig": "2026-07-29T12:00:00+00:00"
   }
  }
 ],
 "properties": {
  "lizenz": "GeoNutzV",
  "profil": "vorhersage",
  "quelle_url": "https://opendata.dwd.de/weather/charts/forecasts/icon/global/na/Z__C_EDZW_20260726061237_nwv01%2Cico_tkb_na_N_000084_000000_202607260000_WV12.png",
  "lauf": "202607260000",
  "vorlauf_h": 84,
  "gueltig": "2026-07-29T12:00:00+00:00",
  "copyright": "\u00a9 Deutscher Wetterdienst, vektorisiert und damit veraendert"
 }
}