{
 "type": "FeatureCollection",
 "features": [
  {
   "type": "Feature",
   "geometry": {
    "type": "LineString",
    "coordinates": [
     [
      -60.036,
      44.2183
     ],
     [
      -59.0902,
      44.4509
     ],
     [
      -58.3819,
      44.3632
     ],
     [
      -57.7463,
      43.7475
     ],
     [
      -56.9062,
      43.3863
     ],
     [
      -56.981,
      42.4901
     ]
    ]
   },
   "properties": {
    "typ": "okklusion",
    "laenge_km": 424.6,
    "punkte": 6,
    "quelle": "Deutscher Wetterdienst, ICON-Vorhersagekarte (tkb)",
    "hinweis": "aus der DWD-Karte vektorisiert (veraendert)",
    "quelle_url": "https://opendata.dwd.de/weather/charts/forecasts/icon/global/na/Z__C_EDZW_20260727054413_nwv01%2Cico_tkb_na_N_000108_000000_202607270000_WV12.png",
    "lauf": "202607270000",
    "vorlauf_h": 108,
    "gueltig": "2026-07-31T12:00:00+00:00"
   }
  },
  {
   "type": "Feature",
   "geometry": {
    "type": "LineString",
    "coordinates": [
     [
      -56.9453,
      42.4251
     ],
     [
      -55.7924,
      42.2707
     ],
     [
      -54.6014,
      42.5215
     ],
     [
      -53.6339,
      42.0661
     ],
     [
      -51.3509,
      41.7985
     ],
     [
      -50.1186,
      42.0226
     ],
     [
      -49.2928,
      41.6076
     ],
     [
      -47.6231,
      41.4793
     ]
    ]
   },
   "properties": {
    "typ": "warm",
    "laenge_km": 873.1,
    "punkte": 8,
    "quelle": "Deutscher Wetterdienst, ICON-Vorhersagekarte (tkb)",
    "hinweis": "aus der DWD-Karte vektorisiert (veraendert)",
    "quelle_url": "https://opendata.dwd.de/weather/charts/forecasts/icon/global/na/Z__C_EDZW_20260727054413_nwv01%2Cico_tkb_na_N_000108_000000_202607270000_WV12.png",
    "lauf": "202607270000",
    "vorlauf_h": 108,
    "gueltig": "2026-07-31T12:00:00+00:00"
   }
  },
  {
   "type": "Feature",
   "geometry": {
    "type": "LineString",
    "coordinates": [
     [
      -47.5324,
      41.4946
     ],
     [
      -45.7461,
      41.3822
     ],
     [
      -44.8651,
      41.0448
     ],
     [
      -43.9708,
      41.2284
     ],
     [
      -39.9194,
      40.8376
     ],
     [
      -39.0885,
      41.2713
     ],
     [
      -36.656,
      41.8201
     ],
     [
      -35.719,
      41.8361
     ],
     [
      -34.1011,
      43.1707
     ]
    ]
   },
   "properties": {
    "typ": "kalt",
    "laenge_km": 1292.8,
    "punkte": 9,
    "quelle": "Deutscher Wetterdienst, ICON-Vorhersagekarte (tkb)",
    "hinweis": "aus der DWD-Karte vektorisiert (veraendert)",
    "quelle_url": "https://opendata.dwd.de/weather/charts/forecasts/icon/global/na/Z__C_EDZW_20260727054413_nwv01%2Cico_tkb_na_N_000108_000000_202607270000_WV12.png",
    "lauf": "202607270000",
    "vorlauf_h": 108,
    "gueltig": "2026-07-31T12:00:00+00:00"
   }
  },
  {
   "type": "Feature",
   "geometry": {
    "type": "LineString",
    "coordinates": [
     [
      -23.6719,
      46.8718
     ],
     [
      -23.1014,
      45.9073
     ],
     [
      -23.6076,
      44.8818
     ],
     [
      -23.3617,
      42.7127
     ],
     [
      -23.1793,
      42.1478
     ],
     [
      -22.4556,
      41.4969
     ],
     [
      -22.5826,
      40.7358
     ],
     [
      -22.0234,
      39.3353
     ],
     [
      -21.8711,
      38.3289
     ],
     [
      -21.4744,
      37.734
     ],
     [
      -22.0395,
      36.3912
     ],
     [
      -22.3974,
      34.4894
     ],
     [
      -22.1792,
      33.9461
     ],
     [
      -22.3161,
      33.4376
     ],
     [
      -22.8431,
      32.9365
     ],
     [
      -23.0778,
      32.1551
     ]
    ]
   },
   "properties": {
    "typ": "warm",
    "laenge_km": 1824.6,
    "punkte": 16,
    "quelle": "Deutscher Wetterdienst, ICON-Vorhersagekarte (tkb)",
    "hinweis": "aus der DWD-Karte vektorisiert (veraendert)",
    "quelle_url": "https://opendata.dwd.de/weather/charts/forecasts/icon/global/na/Z__C_EDZW_20260727054413_nwv01%2Cico_tkb_na_N_000108_000000_202607270000_WV12.png",
    "lauf": "202607270000",
    "vorlauf_h": 108,
    "gueltig": "2026-07-31T12:00:00+00:00"
   }
  },
  {
   "type": "Feature",
   "geometry": {
    "type": "LineString",
    "coordinates": [
     [
      10.4495,
      60.7756
     ],
     [
      10.4376,
      59.7241
     ],
     [
      9.3585,
      59.1155
     ],
     [
      8.867,
      58.0675
     ],
     [
      8.831,
      56.4848
     ],
     [
      9.1655,
      55.1889
     ],
     [
      8.5304,
      54.642
     ],
     [
      7.9641,
      53.3442
     ],
     [
      6.751,
      52.0307
     ],
     [
      6.4837,
      51.2791
     ],
     [
      4.8585,
      50.8298
     ],
     [
      2.6583,
      49.7236
     ],
     [
      2.0069,
      49.3499
     ],
     [
      1.506,
      48.7235
     ],
     [
      -0.2661,
      48.2117
     ]
    ]
   },
   "properties": {
    "typ": "kalt",
    "laenge_km": 1830.6,
    "punkte": 15,
    "quelle": "Deutscher Wetterdienst, ICON-Vorhersagekarte (tkb)",
    "hinweis": "aus der DWD-Karte vektorisiert (veraendert)",
    "quelle_url": "https://opendata.dwd.de/weather/charts/forecasts/icon/global/na/Z__C_EDZW_20260727054413_nwv01%2Cico_tkb_na_N_000108_000000_202607270000_WV12.png",
    "lauf": "202607270000",
    "vorlauf_h": 108,
    "gueltig": "2026-07-31T12:00:00+00:00"
   }
  },
  {
   "type": "Feature",
   "geometry": {
    "type": "LineString",
    "coordinates": [
     [
      19.8542,
      71.2797
     ],
     [
      23.8959,
      69.3502
     ],
     [
      23.3382,
      68.5149
     ],
     [
      23.3995,
      67.8639
     ],
     [
      22.5353,
      66.655
     ]
    ]
   },
   "properties": {
    "typ": "kalt",
    "laenge_km": 585.0,
    "punkte": 5,
    "quelle": "Deutscher Wetterdienst, ICON-Vorhersagekarte (tkb)",
    "hinweis": "aus der DWD-Karte vektorisiert (veraendert)",
    "quelle_url": "https://opendata.dwd.de/weather/charts/forecasts/icon/global/na/Z__C_EDZW_20260727054413_nwv01%2Cico_tkb_na_N_000108_000000_202607270000_WV12.png",
    "lauf": "202607270000",
    "vorlauf_h": 108,
    "gueltig": "2026-07-31T12:00:00+00:00"
   }
  },
  {
   "type": "Feature",
   "geometry": {
    "type": "LineString",
    "coordinates": [
     [
      22.5045,
      66.5996
     ],
     [
      20.3827,
      65.1549
     ],
     [
      18.1589,
      64.6207
     ],
     [
      17.4647,
      63.6393
     ],
     [
      15.2667,
      62.8448
     ],
     [
      13.6597,
      62.7883
     ],
     [
      12.6383,
      62.3652
     ],
     [
      12.3507,
      61.8122
     ]
    ]
   },
   "properties": {
    "typ": "warm",
    "laenge_km": 816.6,
    "punkte": 8,
    "quelle": "Deutscher Wetterdienst, ICON-Vorhersagekarte (tkb)",
    "hinweis": "aus der DWD-Karte vektorisiert (veraendert)",
    "quelle_url": "https://opendata.dwd.de/weather/charts/forecasts/icon/global/na/Z__C_EDZW_20260727054413_nwv01%2Cico_tkb_na_N_000108_000000_202607270000_WV12.png",
    "lauf": "202607270000",
    "vorlauf_h": 108,
    "gueltig": "2026-07-31T12:00:00+00:00"
   }
  },
  {
   "type": "Feature",
   "geometry": {
    "type": "LineString",
    "coordinates": [
     [
      40.5721,
      68.5219
     ],
     [
      37.757,
      69.5403
     ],
     [
      37.4859,
      70.107
     ],
     [
      36.7313,
      70.4947
     ],
     [
      33.6095,
      70.7249
     ],
     [
      30.6257,
      71.2422
     ],
     [
      29.0501,
      71.7281
     ],
     [
      27.1265,
      71.7414
     ],
     [
      25.7629,
      71.5063
     ],
     [
      20.4003,
      71.6006
     ]
    ]
   },
   "properties": {
    "typ": "warm",
    "laenge_km": 956.6,
    "punkte": 10,
    "quelle": "Deutscher Wetterdienst, ICON-Vorhersagekarte (tkb)",
    "hinweis": "aus der DWD-Karte vektorisiert (veraendert)",
    "quelle_url": "https://opendata.dwd.de/weather/charts/forecasts/icon/global/na/Z__C_EDZW_20260727054413_nwv01%2Cico_tkb_na_N_000108_000000_202607270000_WV12.png",
    "lauf": "202607270000",
    "vorlauf_h": 108,
    "gueltig": "2026-07-31T12:00:00+00:00"
   }
  },
  {
   "type": "Feature",
   "geometry": {
    "type": "LineString",
    "coordinates": [
     [
      18.3824,
      71.646
     ],
     [
      11.7903,
      72.057
     ],
     [
      10.1016,
      71.7178
     ],
     [
      6.9647,
      71.7483
     ],
     [
      3.1842,
      71.469
     ],
     [
      2.536,
      71.2681
     ],
     [
      1.7319,
      70.6494
     ],
     [
      -0.7375,
      70.0416
     ],
     [
      -0.9389,
      69.7942
     ],
     [
      -0.2816,
      69.1955
     ],
     [
      -0.3814,
      69.0724
     ]
    ]
   },
   "properties": {
    "typ": "okklusion",
    "laenge_km": 939.9,
    "punkte": 11,
    "quelle": "Deutscher Wetterdienst, ICON-Vorhersagekarte (tkb)",
    "hinweis": "aus der DWD-Karte vektorisiert (veraendert)",
    "quelle_url": "https://opendata.dwd.de/weather/charts/forecasts/icon/global/na/Z__C_EDZW_20260727054413_nwv01%2Cico_tkb_na_N_000108_000000_202607270000_WV12.png",
    "lauf": "202607270000",
    "vorlauf_h": 108,
    "gueltig": "2026-07-31T12:00:00+00:00"
   }
  },
  {
   "type": "Feature",
   "geometry": {
    "type": "LineString",
    "coordinates": [
     [
      -33.4339,
      42.8792
     ],
     [
      -32.9009,
      41.955
     ],
     [
      -32.0529,
      41.2655
     ],
     [
      -32.2737,
      38.4179
     ],
     [
      -33.0755,
      37.8995
     ],
     [
      -33.7872,
      36.8362
     ]
    ]
   },
   "properties": {
    "typ": "warm",
    "laenge_km": 804.1,
    "punkte": 6,
    "quelle": "Deutscher Wetterdienst, ICON-Vorhersagekarte (tkb)",
    "hinweis": "aus der DWD-Karte vektorisiert (veraendert)",
    "quelle_url": "https://opendata.dwd.de/weather/charts/forecasts/icon/global/na/Z__C_EDZW_20260727054413_nwv01%2Cico_tkb_na_N_000108_000000_202607270000_WV12.png",
    "lauf": "202607270000",
    "vorlauf_h": 108,
    "gueltig": "2026-07-31T12:00:00+00:00"
   }
  },
  {
   "type": "Feature",
   "geometry": {
    "type": "LineString",
    "coordinates": [
     [
      63.3801,
      59.8879
     ],
     [
      63.4727,
      60.4743
     ],
     [
      63.841,
      60.8834
     ],
     [
      65.5977,
      61.4176
     ],
     [
      67.0694,
      62.2847
     ]
    ]
   },
   "properties": {
    "typ": "warm",
    "laenge_km": 371.0,
    "punkte": 5,
    "quelle": "Deutscher Wetterdienst, ICON-Vorhersagekarte (tkb)",
    "hinweis": "aus der DWD-Karte vektorisiert (veraendert)",
    "quelle_url": "https://opendata.dwd.de/weather/charts/forecasts/icon/global/na/Z__C_EDZW_20260727054413_nwv01%2Cico_tkb_na_N_000108_000000_202607270000_WV12.png",
    "lauf": "202607270000",
    "vorlauf_h": 108,
    "gueltig": "2026-07-31T12:00:00+00:00"
   }
  },
  {
   "type": "Feature",
   "geometry": {
    "type": "LineString",
    "coordinates": [
     [
      67.1702,
      62.3151
     ],
     [
      69.1069,
      63.3296
     ],
     [
      70.8516,
      63.7808
     ],
     [
      71.2397,
      64.5189
     ],
     [
      72.4263,
      65.4942
     ]
    ]
   },
   "properties": {
    "typ": "kalt",
    "laenge_km": 476.1,
    "punkte": 5,
    "quelle": "Deutscher Wetterdienst, ICON-Vorhersagekarte (tkb)",
    "hinweis": "aus der DWD-Karte vektorisiert (veraendert)",
    "quelle_url": "https://opendata.dwd.de/weather/charts/forecasts/icon/global/na/Z__C_EDZW_20260727054413_nwv01%2Cico_tkb_na_N_000108_000000_202607270000_WV12.png",
    "lauf": "202607270000",
    "vorlauf_h": 108,
    "gueltig": "2026-07-31T12:00:00+00:00"
   }
  },
  {
   "type": "Feature",
   "geometry": {
    "type": "LineString",
    "coordinates": [
     [
      -12.539,
      62.5314
     ],
     [
      -8.1138,
      64.2892
     ],
     [
      -5.9396,
      64.696
     ],
     [
      -5.1769,
      65.4317
     ],
     [
      -3.3881,
      65.7385
     ],
     [
      -2.5542,
      66.283
     ],
     [
      -2.4481,
      66.8746
     ],
     [
      -1.1102,
      67.7401
     ]
    ]
   },
   "properties": {
    "typ": "okklusion",
    "laenge_km": 878.5,
    "punkte": 8,
    "quelle": "Deutscher Wetterdienst, ICON-Vorhersagekarte (tkb)",
    "hinweis": "aus der DWD-Karte vektorisiert (veraendert)",
    "quelle_url": "https://opendata.dwd.de/weather/charts/forecasts/icon/global/na/Z__C_EDZW_20260727054413_nwv01%2Cico_tkb_na_N_000108_000000_202607270000_WV12.png",
    "lauf": "202607270000",
    "vorlauf_h": 108,
    "gueltig": "2026-07-31T12:00:00+00:00"
   }
  },
  {
   "type": "Feature",
   "geometry": {
    "type": "LineString",
    "coordinates": [
     [
      60.8704,
      55.6496
     ],
     [
      60.7143,
      55.9276
     ],
     [
      60.8931,
      56.9211
     ],
     [
      61.8833,
      57.5606
     ],
     [
      61.9457,
      58.4925
     ],
     [
      62.6062,
      59.037
     ]
    ]
   },
   "properties": {
    "typ": "kalt",
    "laenge_km": 428.8,
    "punkte": 6,
    "quelle": "Deutscher Wetterdienst, ICON-Vorhersagekarte (tkb)",
    "hinweis": "aus der DWD-Karte vektorisiert (veraendert)",
    "quelle_url": "https://opendata.dwd.de/weather/charts/forecasts/icon/global/na/Z__C_EDZW_20260727054413_nwv01%2Cico_tkb_na_N_000108_000000_202607270000_WV12.png",
    "lauf": "202607270000",
    "vorlauf_h": 108,
    "gueltig": "2026-07-31T12:00:00+00:00"
   }
  }
 ],
 "properties": {
  "lizenz": "GeoNutzV",
  "profil": "vorhersage",
  "quelle_url": "https://opendata.dwd.de/weather/charts/forecasts/icon/global/na/Z__C_EDZW_20260727054413_nwv01%2Cico_tkb_na_N_000108_000000_202607270000_WV12.png",
  "lauf": "202607270000",
  "vorlauf_h": 108,
  "gueltig": "2026-07-31T12:00:00+00:00",
  "copyright": "\u00a9 Deutscher Wetterdienst, vektorisiert und damit veraendert"
 }
}