{
  "type": "FeatureCollection",
  "features": [
    {
      "type": "Feature",
      "geometry": {
        "type": "Polygon",
        "coordinates": [
          [
            [
              7.7116,
              46.4113
            ],
            [
              7.6839,
              46.3762
            ],
            [
              7.7982,
              46.3757
            ],
            [
              7.8808,
              46.4117
            ],
            [
              7.9659,
              46.4058
            ],
            [
              8.0957,
              46.4511
            ],
            [
              8.209,
              46.5241
            ],
            [
              8.0982,
              46.5499
            ],
            [
              8.0586,
              46.5528
            ],
            [
              8.0288,
              46.5618
            ],
            [
              7.997,
              46.5586
            ],
            [
              7.9634,
              46.5379
            ],
            [
              7.9739,
              46.5215
            ],
            [
              7.9451,
              46.5074
            ],
            [
              7.9297,
              46.5001
            ],
            [
              7.8835,
              46.4796
            ],
            [
              7.8475,
              46.4785
            ],
            [
              7.7197,
              46.4176
            ],
            [
              7.7116,
              46.4113
            ]
          ]
        ]
      },
      "properties": {
        "id": "loetschental",
        "region": "Lötschental",
        "name": "Leukerbad / Loetschental",
        "elevation_ref": 2100,
        "reference_points": [
          [
            46.4214,
            7.8237
          ],
          [
            46.4147,
            7.7584
          ],
          [
            46.4184,
            7.8935
          ],
          [
            46.5513,
            8.0615
          ],
          [
            46.3836,
            7.8143
          ],
          [
            46.4353,
            7.9208
          ],
          [
            46.4894,
            8.1
          ]
        ]
      }
    },
    {
      "type": "Feature",
      "geometry": {
        "type": "Polygon",
        "coordinates": [
          [
            [
              7.8132,
              46.2386
            ],
            [
              7.7672,
              46.2127
            ],
            [
              7.4292,
              46.1107
            ],
            [
              7.2737,
              46.0861
            ],
            [
              7.2181,
              46.0045
            ],
            [
              7.2931,
              45.9254
            ],
            [
              7.3878,
              45.8965
            ],
            [
              7.575,
              45.9847
            ],
            [
              7.8649,
              45.9183
            ],
            [
              7.8787,
              45.9766
            ],
            [
              7.9086,
              45.9973
            ],
            [
              7.9887,
              45.9968
            ],
            [
              8.0404,
              46.0489
            ],
            [
              8.0193,
              46.0706
            ],
            [
              8.0346,
              46.1009
            ],
            [
              7.9916,
              46.2034
            ],
            [
              7.8132,
              46.2386
            ]
          ]
        ]
      },
      "properties": {
        "id": "walliser_hochalpen",
        "region": "Walliser Hochalpen",
        "name": "Graehen",
        "elevation_ref": 2000,
        "reference_points": [
          [
            45.9838,
            7.7889
          ],
          [
            46.0171,
            7.7698
          ],
          [
            45.9806,
            7.6911
          ],
          [
            46.1358,
            7.8834
          ],
          [
            46.1063,
            7.7126
          ],
          [
            46.0881,
            7.8542
          ],
          [
            46.17,
            7.79
          ]
        ]
      }
    },
    {
      "type": "Feature",
      "geometry": {
        "type": "Polygon",
        "coordinates": [
          [
            [
              7.7116,
              46.4113
            ],
            [
              7.6273,
              46.4439
            ],
            [
              7.5368,
              46.3981
            ],
            [
              7.228,
              46.3449
            ],
            [
              7.1357,
              46.2344
            ],
            [
              7.0817,
              46.1928
            ],
            [
              7.0712,
              46.1439
            ],
            [
              7.1267,
              46.0936
            ],
            [
              7.0742,
              46.0482
            ],
            [
              7.0058,
              46.0673
            ],
            [
              6.9495,
              46.1718
            ],
            [
              6.8952,
              46.1214
            ],
            [
              6.8675,
              46.0507
            ],
            [
              6.8794,
              46.0403
            ],
            [
              7.0103,
              45.996
            ],
            [
              7.0959,
              45.8627
            ],
            [
              7.1696,
              45.8668
            ],
            [
              7.2931,
              45.9254
            ],
            [
              7.2181,
              46.0045
            ],
            [
              7.2737,
              46.0861
            ],
            [
              7.4292,
              46.1107
            ],
            [
              7.7672,
              46.2127
            ],
            [
              7.8132,
              46.2386
            ],
            [
              7.7982,
              46.3757
            ],
            [
              7.6839,
              46.3762
            ],
            [
              7.7116,
              46.4113
            ]
          ]
        ]
      },
      "properties": {
        "id": "unterwallis",
        "region": "Unterwallis",
        "name": "Verbier Les Ruinettes",
        "elevation_ref": 2200,
        "reference_points": [
          [
            46.2278,
            7.3622
          ],
          [
            46.1193,
            7.2325
          ],
          [
            45.9372,
            7.2792
          ],
          [
            46.3934,
            7.5297
          ],
          [
            46.0805,
            7.2168
          ],
          [
            46.3082,
            7.4815
          ],
          [
            46.178,
            7.5765
          ]
        ]
      }
    },
    {
      "type": "Feature",
      "geometry": {
        "type": "Polygon",
        "coordinates": [
          [
            [
              7.228,
              46.3449
            ],
            [
              7.1962,
              46.3787
            ],
            [
              7.0121,
              46.376
            ],
            [
              6.9762,
              46.4312
            ],
            [
              6.9784,
              46.4736
            ],
            [
              6.8656,
              46.4933
            ],
            [
              6.7207,
              46.3874
            ],
            [
              6.8607,
              46.2776
            ],
            [
              6.7904,
              46.1598
            ],
            [
              6.8952,
              46.1214
            ],
            [
              6.9495,
              46.1718
            ],
            [
              7.0058,
              46.0673
            ],
            [
              7.0742,
              46.0482
            ],
            [
              7.1267,
              46.0936
            ],
            [
              7.0712,
              46.1439
            ],
            [
              7.0817,
              46.1928
            ],
            [
              7.1357,
              46.2344
            ],
            [
              7.228,
              46.3449
            ]
          ]
        ]
      },
      "properties": {
        "id": "waadtlaender_alpen",
        "region": "Waadtlaender Alpen",
        "name": "Col du Pillon / Leysin",
        "elevation_ref": 1600,
        "reference_points": [
          [
            46.1019,
            7.0445
          ],
          [
            46.3218,
            7.064
          ],
          [
            46.3625,
            7.1834
          ],
          [
            46.1903,
            6.8168
          ],
          [
            46.283,
            6.957
          ],
          [
            46.4782,
            6.9102
          ],
          [
            46.2712,
            7.0464
          ]
        ]
      }
    },
    {
      "type": "Feature",
      "geometry": {
        "type": "Polygon",
        "coordinates": [
          [
            [
              7.7982,
              46.3757
            ],
            [
              7.8132,
              46.2386
            ],
            [
              7.9916,
              46.2034
            ],
            [
              8.1081,
              46.2502
            ],
            [
              8.0817,
              46.2604
            ],
            [
              8.1399,
              46.3011
            ],
            [
              8.1762,
              46.2966
            ],
            [
              8.3148,
              46.3769
            ],
            [
              8.3142,
              46.3994
            ],
            [
              8.2909,
              46.4081
            ],
            [
              8.3837,
              46.453
            ],
            [
              8.3911,
              46.4943
            ],
            [
              8.4832,
              46.5312
            ],
            [
              8.4836,
              46.619
            ],
            [
              8.4099,
              46.6536
            ],
            [
              8.3716,
              46.6325
            ],
            [
              8.3434,
              46.5636
            ],
            [
              8.209,
              46.5241
            ],
            [
              8.0957,
              46.4511
            ],
            [
              7.9659,
              46.4058
            ],
            [
              7.8808,
              46.4117
            ],
            [
              7.7982,
              46.3757
            ]
          ]
        ]
      },
      "properties": {
        "id": "oberwallis_goms",
        "region": "Oberwallis / Goms",
        "name": "Fiescheralp / Kühboden",
        "elevation_ref": 2200,
        "reference_points": [
          [
            46.3916,
            7.8508
          ],
          [
            46.3714,
            7.9754
          ],
          [
            46.4113,
            8.1028
          ],
          [
            46.5065,
            8.1851
          ],
          [
            46.5173,
            8.2912
          ],
          [
            46.5722,
            8.4156
          ],
          [
            46.4783,
            8.3853
          ]
        ]
      }
    },
    {
      "type": "Feature",
      "geometry": {
        "type": "Polygon",
        "coordinates": [
          [
            [
              8.3837,
              46.453
            ],
            [
              8.4498,
              46.4636
            ],
            [
              8.4642,
              46.447
            ],
            [
              8.4652,
              46.331
            ],
            [
              8.3879,
              46.2469
            ],
            [
              8.4617,
              46.2444
            ],
            [
              8.6012,
              46.286
            ],
            [
              8.6715,
              46.3185
            ],
            [
              8.7151,
              46.3525
            ],
            [
              8.7418,
              46.4054
            ],
            [
              8.8059,
              46.3779
            ],
            [
              8.832,
              46.3665
            ],
            [
              8.8631,
              46.3484
            ],
            [
              9.158,
              46.3404
            ],
            [
              9.1713,
              46.3733
            ],
            [
              9.1586,
              46.4177
            ],
            [
              9.1356,
              46.4658
            ],
            [
              9.1115,
              46.4793
            ],
            [
              9.0478,
              46.4776
            ],
            [
              9.0388,
              46.4927
            ],
            [
              9.0226,
              46.5108
            ],
            [
              9.0281,
              46.5681
            ],
            [
              9.0422,
              46.5848
            ],
            [
              9.033,
              46.6
            ],
            [
              8.9194,
              46.5987
            ],
            [
              8.8437,
              46.5633
            ],
            [
              8.6146,
              46.5786
            ],
            [
              8.4832,
              46.5312
            ],
            [
              8.3911,
              46.4943
            ],
            [
              8.3837,
              46.453
            ]
          ]
        ]
      },
      "properties": {
        "id": "leventina_blenio",
        "region": "Leventina / Blenio",
        "name": "Carì",
        "elevation_ref": 2000,
        "reference_points": [
          [
            46.4235,
            8.5212
          ],
          [
            46.509,
            8.818
          ],
          [
            46.4297,
            8.7261
          ],
          [
            46.5389,
            8.5195
          ],
          [
            46.3363,
            8.609
          ],
          [
            46.375,
            9.1265
          ],
          [
            46.5257,
            8.7675
          ]
        ]
      }
    },
    {
      "type": "Feature",
      "geometry": {
        "type": "Polygon",
        "coordinates": [
          [
            [
              8.4617,
              46.2444
            ],
            [
              8.4236,
              46.2182
            ],
            [
              8.5079,
              46.1067
            ],
            [
              8.6125,
              46.1221
            ],
            [
              8.6475,
              46.1237
            ],
            [
              8.8006,
              46.0946
            ],
            [
              8.8664,
              46.1036
            ],
            [
              9.0338,
              46.1465
            ],
            [
              9.1047,
              46.1384
            ],
            [
              9.1557,
              46.1619
            ],
            [
              9.1941,
              46.1778
            ],
            [
              9.2009,
              46.2074
            ],
            [
              9.2139,
              46.2101
            ],
            [
              9.2226,
              46.2241
            ],
            [
              9.2969,
              46.3206
            ],
            [
              9.2667,
              46.4509
            ],
            [
              9.2371,
              46.4879
            ],
            [
              9.169284,
              46.482777
            ],
            [
              9.11324,
              46.479405
            ],
            [
              9.1115,
              46.4793
            ],
            [
              9.1356,
              46.4658
            ],
            [
              9.1586,
              46.4177
            ],
            [
              9.1713,
              46.3733
            ],
            [
              9.158,
              46.3404
            ],
            [
              8.8631,
              46.3484
            ],
            [
              8.832,
              46.3665
            ],
            [
              8.8059,
              46.3779
            ],
            [
              8.7418,
              46.4054
            ],
            [
              8.7151,
              46.3525
            ],
            [
              8.6715,
              46.3185
            ],
            [
              8.6012,
              46.286
            ],
            [
              8.4617,
              46.2444
            ]
          ]
        ]
      },
      "properties": {
        "id": "locarnese_bellinzonese",
        "region": "Locarnese / Bellinzonese",
        "name": "Locarno Cimetta",
        "elevation_ref": 1650,
        "reference_points": [
          [
            46.1649,
            8.4872
          ],
          [
            46.4633,
            9.2442
          ],
          [
            46.2008,
            8.7909
          ],
          [
            46.367,
            8.8189
          ],
          [
            46.2469,
            9.0555
          ],
          [
            46.2161,
            8.6703
          ],
          [
            46.2344,
            8.8383
          ]
        ]
      }
    },
    {
      "type": "Feature",
      "geometry": {
        "type": "Polygon",
        "coordinates": [
          [
            [
              9.1115,
              46.4793
            ],
            [
              9.11324,
              46.479405
            ],
            [
              9.169284,
              46.482777
            ],
            [
              9.2371,
              46.4879
            ],
            [
              9.2667,
              46.4509
            ],
            [
              9.2833,
              46.4964
            ],
            [
              9.3638,
              46.5072
            ],
            [
              9.4028,
              46.4137
            ],
            [
              9.4215,
              46.3589
            ],
            [
              9.5457,
              46.3701
            ],
            [
              9.5702,
              46.3996
            ],
            [
              9.6672,
              46.4165
            ],
            [
              9.7467,
              46.4494
            ],
            [
              9.7045,
              46.475
            ],
            [
              9.6954,
              46.5448
            ],
            [
              9.8286,
              46.5714
            ],
            [
              9.8785,
              46.6198
            ],
            [
              9.8307,
              46.6754
            ],
            [
              9.7202,
              46.7541
            ],
            [
              9.6491,
              46.7206
            ],
            [
              9.6117,
              46.7281
            ],
            [
              9.5996,
              46.7608
            ],
            [
              9.5698,
              46.803
            ],
            [
              9.379,
              46.7703
            ],
            [
              9.2706,
              46.5781
            ],
            [
              9.118,
              46.5218
            ],
            [
              9.1025,
              46.5091
            ],
            [
              9.0226,
              46.5108
            ],
            [
              9.0388,
              46.4927
            ],
            [
              9.0478,
              46.4776
            ],
            [
              9.1115,
              46.4793
            ]
          ]
        ]
      },
      "properties": {
        "id": "mittelbuenden",
        "region": "Mittelbünden",
        "name": "Scuol Motta Naluns",
        "elevation_ref": 2100,
        "reference_points": [
          [
            46.6024,
            9.4986
          ],
          [
            46.5515,
            9.3746
          ],
          [
            46.6018,
            9.7064
          ],
          [
            46.658,
            9.579
          ],
          [
            46.4694,
            9.6507
          ],
          [
            46.725,
            9.565
          ],
          [
            46.4847,
            9.5579
          ]
        ]
      }
    },
    {
      "type": "Feature",
      "geometry": {
        "type": "Polygon",
        "coordinates": [
          [
            [
              9.6672,
              46.4165
            ],
            [
              9.7681,
              46.3389
            ],
            [
              9.9581,
              46.3786
            ],
            [
              10.1209,
              46.4296
            ],
            [
              10.1835,
              46.4449
            ],
            [
              10.2175,
              46.4991
            ],
            [
              10.1956,
              46.566
            ],
            [
              10.3899,
              46.6623
            ],
            [
              10.1138,
              46.7247
            ],
            [
              10.0914,
              46.8578
            ],
            [
              9.9886,
              46.7911
            ],
            [
              9.8785,
              46.6198
            ],
            [
              9.8286,
              46.5714
            ],
            [
              9.6954,
              46.5448
            ],
            [
              9.7045,
              46.475
            ],
            [
              9.7467,
              46.4494
            ],
            [
              9.6672,
              46.4165
            ]
          ]
        ]
      },
      "properties": {
        "id": "oberengadin",
        "region": "Oberengadin",
        "name": "Muottas Muragl",
        "elevation_ref": 2450,
        "reference_points": [
          [
            46.5219,
            9.9009
          ],
          [
            46.6777,
            10.1014
          ],
          [
            46.4181,
            9.8216
          ],
          [
            46.5058,
            9.7891
          ],
          [
            46.4127,
            9.9649
          ],
          [
            46.403,
            9.692
          ],
          [
            46.5815,
            9.9413
          ]
        ]
      }
    },
    {
      "type": "Feature",
      "geometry": {
        "type": "Polygon",
        "coordinates": [
          [
            [
              9.8785,
              46.6198
            ],
            [
              9.9886,
              46.7911
            ],
            [
              10.0914,
              46.8578
            ],
            [
              10.0165,
              46.9014
            ],
            [
              9.8731,
              46.9289
            ],
            [
              9.8748,
              47.0198
            ],
            [
              9.7093,
              47.0519
            ],
            [
              9.5561,
              47.0511
            ],
            [
              9.6021,
              47.0102
            ],
            [
              9.6141,
              46.8712
            ],
            [
              9.5698,
              46.803
            ],
            [
              9.5996,
              46.7608
            ],
            [
              9.6117,
              46.7281
            ],
            [
              9.6491,
              46.7206
            ],
            [
              9.7202,
              46.7541
            ],
            [
              9.8307,
              46.6754
            ],
            [
              9.8785,
              46.6198
            ]
          ]
        ]
      },
      "properties": {
        "id": "praettigau_davos",
        "region": "Prättigau - Davos",
        "name": "Fanas Eggli",
        "elevation_ref": 1700,
        "reference_points": [
          [
            46.8328,
            9.805
          ],
          [
            46.7895,
            9.6387
          ],
          [
            47.0124,
            9.8396
          ],
          [
            46.6927,
            9.9203
          ],
          [
            46.8327,
            9.8537
          ],
          [
            46.7936,
            9.822
          ],
          [
            46.9682,
            9.6891
          ]
        ]
      }
    },
    {
      "type": "Feature",
      "geometry": {
        "type": "Polygon",
        "coordinates": [
          [
            [
              9.5698,
              46.803
            ],
            [
              9.6141,
              46.8712
            ],
            [
              9.6021,
              47.0102
            ],
            [
              9.5561,
              47.0511
            ],
            [
              9.629,
              47.1832
            ],
            [
              9.7639,
              47.2833
            ],
            [
              9.7811,
              47.516
            ],
            [
              9.7232,
              47.5871
            ],
            [
              9.4804,
              47.4424
            ],
            [
              9.513,
              47.3099
            ],
            [
              9.3498,
              47.2144
            ],
            [
              9.3955,
              47.1306
            ],
            [
              9.4148,
              47.1099
            ],
            [
              9.4267,
              47.0987
            ],
            [
              9.3992,
              46.9737
            ],
            [
              9.3844,
              46.8977
            ],
            [
              9.379,
              46.7703
            ],
            [
              9.5698,
              46.803
            ]
          ]
        ]
      },
      "properties": {
        "id": "rheintal",
        "region": "Rheintal",
        "name": "Santa Maria in Calanca",
        "elevation_ref": 1500,
        "reference_points": [
          [
            46.8996,
            9.4674
          ],
          [
            46.9535,
            9.3978
          ],
          [
            47.0488,
            9.5566
          ],
          [
            47.165,
            9.5601
          ],
          [
            47.3002,
            9.7487
          ],
          [
            47.443,
            9.535
          ],
          [
            47.1699,
            9.4746
          ]
        ]
      }
    },
    {
      "type": "Feature",
      "geometry": {
        "type": "Polygon",
        "coordinates": [
          [
            [
              9.4804,
              47.4424
            ],
            [
              9.2728,
              47.3787
            ],
            [
              8.8215,
              47.4791
            ],
            [
              8.743016,
              47.457354
            ],
            [
              8.8863,
              47.2942
            ],
            [
              9.0127,
              47.2588
            ],
            [
              9.0885,
              47.1624
            ],
            [
              9.2131,
              47.1476
            ],
            [
              9.3132,
              47.1545
            ],
            [
              9.4148,
              47.1099
            ],
            [
              9.3955,
              47.1306
            ],
            [
              9.3498,
              47.2144
            ],
            [
              9.513,
              47.3099
            ],
            [
              9.4804,
              47.4424
            ]
          ]
        ]
      },
      "properties": {
        "id": "alpstein",
        "region": "Alpstein / Toggenburg",
        "name": "Ebenalp",
        "elevation_ref": 1640,
        "reference_points": [
          [
            47.4453,
            8.8176
          ],
          [
            47.2979,
            9.4566
          ],
          [
            47.1871,
            9.0958
          ],
          [
            47.3359,
            9.1689
          ],
          [
            47.2858,
            9.4101
          ],
          [
            47.3499,
            8.9805
          ],
          [
            47.2561,
            9.3077
          ]
        ]
      }
    },
    {
      "type": "Feature",
      "geometry": {
        "type": "Polygon",
        "coordinates": [
          [
            [
              8.4832,
              46.5312
            ],
            [
              8.6146,
              46.5786
            ],
            [
              8.6361,
              46.6834
            ],
            [
              8.8766,
              46.8131
            ],
            [
              8.8585,
              46.8815
            ],
            [
              8.9494,
              46.9696
            ],
            [
              8.8844,
              47.0622
            ],
            [
              8.8318,
              47.0448
            ],
            [
              8.6884,
              47.031
            ],
            [
              8.6101,
              47.0192
            ],
            [
              8.2543,
              46.9791
            ],
            [
              8.1856,
              46.9845
            ],
            [
              7.9099,
              46.8252
            ],
            [
              7.9753,
              46.7899
            ],
            [
              8.09,
              46.7876
            ],
            [
              8.2797,
              46.7521
            ],
            [
              8.3688,
              46.7884
            ],
            [
              8.4483,
              46.7645
            ],
            [
              8.4099,
              46.6536
            ],
            [
              8.4836,
              46.619
            ],
            [
              8.4832,
              46.5312
            ]
          ]
        ]
      },
      "properties": {
        "id": "zentralschweizer_alpen",
        "region": "Zentralschweizer Alpen",
        "name": "Engelberg Brunni",
        "elevation_ref": 1860,
        "reference_points": [
          [
            46.832,
            7.9775
          ],
          [
            47.029,
            8.8844
          ],
          [
            46.965,
            8.64
          ],
          [
            46.9626,
            8.3647
          ],
          [
            46.8357,
            8.5432
          ],
          [
            46.878,
            8.2988
          ],
          [
            46.887,
            8.7004
          ]
        ]
      }
    },
    {
      "type": "Feature",
      "geometry": {
        "type": "Polygon",
        "coordinates": [
          [
            [
              9.0226,
              46.5108
            ],
            [
              9.1025,
              46.5091
            ],
            [
              9.118,
              46.5218
            ],
            [
              9.2706,
              46.5781
            ],
            [
              9.379,
              46.7703
            ],
            [
              9.3844,
              46.8977
            ],
            [
              9.2479,
              46.916
            ],
            [
              9.1107,
              46.8504
            ],
            [
              9.095,
              46.8707
            ],
            [
              9.0639,
              46.8749
            ],
            [
              9.0472,
              46.8666
            ],
            [
              9.0218,
              46.8174
            ],
            [
              8.9266,
              46.7973
            ],
            [
              8.8766,
              46.8131
            ],
            [
              8.6361,
              46.6834
            ],
            [
              8.6146,
              46.5786
            ],
            [
              8.8437,
              46.5633
            ],
            [
              8.9194,
              46.5987
            ],
            [
              9.033,
              46.6
            ],
            [
              9.0422,
              46.5848
            ],
            [
              9.0281,
              46.5681
            ],
            [
              9.0226,
              46.5108
            ]
          ]
        ]
      },
      "properties": {
        "id": "surselva",
        "region": "Surselva",
        "name": "Flims Crap Sogn Gion",
        "elevation_ref": 2200,
        "reference_points": [
          [
            46.5785,
            8.6728
          ],
          [
            46.8985,
            9.3432
          ],
          [
            46.7424,
            9.1609
          ],
          [
            46.7823,
            8.9431
          ],
          [
            46.7888,
            9.2039
          ],
          [
            46.6388,
            8.8271
          ],
          [
            46.6919,
            9.0988
          ]
        ]
      }
    },
    {
      "type": "Feature",
      "geometry": {
        "type": "Polygon",
        "coordinates": [
          [
            [
              9.4148,
              47.1099
            ],
            [
              9.3132,
              47.1545
            ],
            [
              9.2131,
              47.1476
            ],
            [
              9.0885,
              47.1624
            ],
            [
              9.0587,
              47.1285
            ],
            [
              8.9662,
              47.1204
            ],
            [
              8.8844,
              47.0622
            ],
            [
              8.9494,
              46.9696
            ],
            [
              8.8585,
              46.8815
            ],
            [
              8.8766,
              46.8131
            ],
            [
              8.9266,
              46.7973
            ],
            [
              9.0218,
              46.8174
            ],
            [
              9.0472,
              46.8666
            ],
            [
              9.0639,
              46.8749
            ],
            [
              9.095,
              46.8707
            ],
            [
              9.1107,
              46.8504
            ],
            [
              9.2479,
              46.916
            ],
            [
              9.3844,
              46.8977
            ],
            [
              9.3992,
              46.9737
            ],
            [
              9.4267,
              47.0987
            ],
            [
              9.4148,
              47.1099
            ]
          ]
        ]
      },
      "properties": {
        "id": "glarner_alpen",
        "region": "Glarner Alpen",
        "name": "Schrina",
        "elevation_ref": 1300,
        "reference_points": [
          [
            47.1,
            9.3
          ],
          [
            46.9325,
            9.142
          ],
          [
            46.9596,
            8.9874
          ],
          [
            47.1474,
            9.3269
          ],
          [
            47.0228,
            9.0387
          ],
          [
            46.9702,
            9.0438
          ],
          [
            47.09,
            9.07
          ]
        ]
      }
    },
    {
      "type": "Feature",
      "geometry": {
        "type": "Polygon",
        "coordinates": [
          [
            [
              8.209,
              46.5241
            ],
            [
              8.3434,
              46.5636
            ],
            [
              8.3716,
              46.6325
            ],
            [
              8.4099,
              46.6536
            ],
            [
              8.4483,
              46.7645
            ],
            [
              8.3688,
              46.7884
            ],
            [
              8.2797,
              46.7521
            ],
            [
              8.09,
              46.7876
            ],
            [
              7.9753,
              46.7899
            ],
            [
              7.9099,
              46.8252
            ],
            [
              7.802,
              46.7577
            ],
            [
              7.7517,
              46.7172
            ],
            [
              7.7937,
              46.6213
            ],
            [
              7.8188,
              46.5614
            ],
            [
              7.803,
              46.5123
            ],
            [
              7.8475,
              46.4785
            ],
            [
              7.8835,
              46.4796
            ],
            [
              7.9297,
              46.5001
            ],
            [
              7.9451,
              46.5074
            ],
            [
              7.9739,
              46.5215
            ],
            [
              7.9634,
              46.5379
            ],
            [
              7.997,
              46.5586
            ],
            [
              8.0288,
              46.5618
            ],
            [
              8.0586,
              46.5528
            ],
            [
              8.0982,
              46.5499
            ],
            [
              8.209,
              46.5241
            ]
          ]
        ]
      },
      "properties": {
        "id": "berner_alpen",
        "region": "Berner Alpen",
        "name": "Niederhorn",
        "elevation_ref": 1950,
        "reference_points": [
          [
            46.696,
            7.776
          ],
          [
            46.658,
            7.908
          ],
          [
            46.658,
            8.053
          ],
          [
            46.547,
            7.8844
          ],
          [
            46.747,
            7.942
          ],
          [
            46.7127,
            7.9744
          ],
          [
            46.728,
            8.258
          ]
        ]
      }
    },
    {
      "type": "Feature",
      "geometry": {
        "type": "Polygon",
        "coordinates": [
          [
            [
              7.8475,
              46.4785
            ],
            [
              7.803,
              46.5123
            ],
            [
              7.8188,
              46.5614
            ],
            [
              7.7937,
              46.6213
            ],
            [
              7.7364,
              46.6219
            ],
            [
              7.558,
              46.7132
            ],
            [
              7.4442,
              46.7225
            ],
            [
              7.2414,
              46.6439
            ],
            [
              7.2113,
              46.5817
            ],
            [
              7.1496,
              46.5936
            ],
            [
              7.1158,
              46.5796
            ],
            [
              7.1003,
              46.5156
            ],
            [
              7.0213,
              46.5545
            ],
            [
              6.9984,
              46.5483
            ],
            [
              6.9859,
              46.5335
            ],
            [
              6.9784,
              46.4736
            ],
            [
              6.9762,
              46.4312
            ],
            [
              7.0121,
              46.376
            ],
            [
              7.1962,
              46.3787
            ],
            [
              7.228,
              46.3449
            ],
            [
              7.5368,
              46.3981
            ],
            [
              7.6273,
              46.4439
            ],
            [
              7.7116,
              46.4113
            ],
            [
              7.7197,
              46.4176
            ],
            [
              7.8475,
              46.4785
            ]
          ]
        ]
      },
      "properties": {
        "id": "berner_oberland",
        "region": "Berner Oberland",
        "name": "Moléson",
        "elevation_ref": 1950,
        "reference_points": [
          [
            46.6444,
            7.6492
          ],
          [
            46.5488,
            7.017
          ],
          [
            46.4972,
            7.5417
          ],
          [
            46.6933,
            7.5376
          ],
          [
            46.6693,
            7.3181
          ],
          [
            46.4887,
            7.2528
          ],
          [
            46.62,
            7.57
          ]
        ]
      }
    },
    {
      "type": "Feature",
      "geometry": {
        "type": "Polygon",
        "coordinates": [
          [
            [
              6.8656,
              46.4933
            ],
            [
              6.7223,
              46.5484
            ],
            [
              6.4749,
              46.7166
            ],
            [
              6.3542,
              46.5485
            ],
            [
              6.32,
              46.523
            ],
            [
              5.8785,
              46.202
            ],
            [
              5.8588,
              46.1493
            ],
            [
              5.9341,
              46.0581
            ],
            [
              6.0215,
              46.0917
            ],
            [
              6.1315,
              46.0789
            ],
            [
              6.2035,
              46.1693
            ],
            [
              6.3108,
              46.2118
            ],
            [
              6.5331,
              46.3746
            ],
            [
              6.7207,
              46.3874
            ],
            [
              6.8656,
              46.4933
            ]
          ]
        ]
      },
      "properties": {
        "id": "genferseeregion",
        "region": "Genferseeregion",
        "name": "Lavaux / Jorat",
        "elevation_ref": 800,
        "reference_points": [
          [
            46.49,
            6.85
          ],
          [
            46.4925,
            6.7264
          ],
          [
            46.564,
            6.685
          ],
          [
            46.513,
            6.6292
          ],
          [
            46.516,
            6.358
          ],
          [
            46.67,
            6.54
          ],
          [
            46.19,
            6.19
          ]
        ]
      }
    },
    {
      "type": "Feature",
      "geometry": {
        "type": "Polygon",
        "coordinates": [
          [
            [
              6.8656,
              46.4933
            ],
            [
              6.8461,
              46.6127
            ],
            [
              6.8989,
              46.709
            ],
            [
              7.1093,
              46.75
            ],
            [
              7.4395,
              46.8996
            ],
            [
              7.1022,
              47.086
            ],
            [
              6.8313,
              46.9566
            ],
            [
              6.7185,
              46.8608
            ],
            [
              6.6202,
              46.8427
            ],
            [
              6.5262,
              46.7888
            ],
            [
              6.4749,
              46.7166
            ],
            [
              6.7223,
              46.5484
            ],
            [
              6.8656,
              46.4933
            ]
          ]
        ]
      },
      "properties": {
        "id": "plateau",
        "region": "Plateau",
        "name": "Moudon",
        "elevation_ref": 700,
        "reference_points": [
          [
            46.9008,
            7.3792
          ],
          [
            46.6785,
            6.5352
          ],
          [
            46.9749,
            6.8969
          ],
          [
            46.5303,
            6.7763
          ],
          [
            46.8512,
            6.9286
          ],
          [
            46.7287,
            6.7375
          ],
          [
            46.9065,
            7.0981
          ]
        ]
      }
    },
    {
      "type": "Feature",
      "geometry": {
        "type": "Polygon",
        "coordinates": [
          [
            [
              7.1022,
              47.086
            ],
            [
              6.9557,
              47.2906
            ],
            [
              6.7768,
              47.1872
            ],
            [
              6.3184,
              47.0313
            ],
            [
              6.229,
              46.9353
            ],
            [
              6.1597,
              46.8673
            ],
            [
              6.4749,
              46.7166
            ],
            [
              6.5262,
              46.7888
            ],
            [
              6.6202,
              46.8427
            ],
            [
              6.7185,
              46.8608
            ],
            [
              6.8313,
              46.9566
            ],
            [
              7.1022,
              47.086
            ]
          ]
        ]
      },
      "properties": {
        "id": "neuenburger_jura",
        "region": "Neuenburger Jura",
        "name": "Mauborget / Suchet",
        "elevation_ref": 1200,
        "reference_points": [
          [
            47.1322,
            7.0533
          ],
          [
            47.0446,
            6.8259
          ],
          [
            46.9318,
            6.7255
          ],
          [
            46.8597,
            6.5294
          ],
          [
            46.8028,
            6.5085
          ],
          [
            46.983,
            6.612
          ],
          [
            46.9402,
            6.6801
          ]
        ]
      }
    },
    {
      "type": "Feature",
      "geometry": {
        "type": "Polygon",
        "coordinates": [
          [
            [
              7.1022,
              47.086
            ],
            [
              7.3532,
              47.1769
            ],
            [
              7.3941,
              47.2095
            ],
            [
              7.5886,
              47.2484
            ],
            [
              7.7574,
              47.2973
            ],
            [
              7.7502,
              47.3504
            ],
            [
              7.7129,
              47.3758
            ],
            [
              7.58,
              47.3437
            ],
            [
              7.5289,
              47.32
            ],
            [
              7.4842,
              47.36
            ],
            [
              7.3604,
              47.3704
            ],
            [
              7.1255,
              47.3353
            ],
            [
              6.9557,
              47.2906
            ],
            [
              7.1022,
              47.086
            ]
          ]
        ]
      },
      "properties": {
        "id": "jura_zentral",
        "region": "Jura Zentral",
        "name": "Weissenstein",
        "elevation_ref": 1280,
        "reference_points": [
          [
            47.2944,
            7.4113
          ],
          [
            47.3602,
            7.6555
          ],
          [
            47.2522,
            7.5099
          ],
          [
            47.2412,
            7.4508
          ],
          [
            47.1653,
            7.1778
          ],
          [
            47.1095,
            7.15
          ],
          [
            47.24,
            7.34
          ]
        ]
      }
    },
    {
      "type": "Feature",
      "geometry": {
        "type": "Polygon",
        "coordinates": [
          [
            [
              7.7574,
              47.2973
            ],
            [
              7.9503,
              47.386
            ],
            [
              8.0382,
              47.4259
            ],
            [
              7.9351,
              47.5309
            ],
            [
              7.8737,
              47.5459
            ],
            [
              7.7993,
              47.5104
            ],
            [
              7.7007,
              47.5083
            ],
            [
              7.6386,
              47.5007
            ],
            [
              7.6211,
              47.4697
            ],
            [
              7.4258,
              47.463
            ],
            [
              7.2953,
              47.4994
            ],
            [
              6.9124,
              47.4897
            ],
            [
              6.9557,
              47.2906
            ],
            [
              7.1255,
              47.3353
            ],
            [
              7.3604,
              47.3704
            ],
            [
              7.4842,
              47.36
            ],
            [
              7.5289,
              47.32
            ],
            [
              7.58,
              47.3437
            ],
            [
              7.7129,
              47.3758
            ],
            [
              7.7502,
              47.3504
            ],
            [
              7.7574,
              47.2973
            ]
          ]
        ]
      },
      "properties": {
        "id": "tafeljura",
        "region": "Tafeljura",
        "name": "Wasserflue / Geissflue",
        "elevation_ref": 900,
        "reference_points": [
          [
            47.3627,
            7.8105
          ],
          [
            47.4305,
            8.0225
          ],
          [
            47.4168,
            7.9548
          ],
          [
            47.3517,
            7.764
          ],
          [
            47.3735,
            7.6603
          ],
          [
            47.3848,
            7.2059
          ],
          [
            47.3537,
            7.2305
          ]
        ]
      }
    },
    {
      "type": "Feature",
      "geometry": {
        "type": "Polygon",
        "coordinates": [
          [
            [
              6.9784,
              46.4736
            ],
            [
              6.9859,
              46.5335
            ],
            [
              6.9984,
              46.5483
            ],
            [
              7.0213,
              46.5545
            ],
            [
              7.1003,
              46.5156
            ],
            [
              7.1158,
              46.5796
            ],
            [
              7.1496,
              46.5936
            ],
            [
              7.2113,
              46.5817
            ],
            [
              7.2414,
              46.6439
            ],
            [
              7.4442,
              46.7225
            ],
            [
              7.4395,
              46.8996
            ],
            [
              7.1093,
              46.75
            ],
            [
              6.8989,
              46.709
            ],
            [
              6.8461,
              46.6127
            ],
            [
              6.8656,
              46.4933
            ],
            [
              6.9784,
              46.4736
            ]
          ]
        ]
      },
      "properties": {
        "id": "freiburger_voralpen",
        "region": "Freiburger Voralpen",
        "name": "Gantrisch / Schwarzsee",
        "elevation_ref": 1500,
        "reference_points": [
          [
            46.7128,
            7.3535
          ],
          [
            46.6968,
            7.2681
          ],
          [
            46.504,
            6.8684
          ],
          [
            46.608,
            7.185
          ],
          [
            46.7397,
            7.2884
          ],
          [
            46.7348,
            7.4365
          ],
          [
            46.5581,
            7.0406
          ]
        ]
      }
    },
    {
      "type": "Feature",
      "geometry": {
        "type": "Polygon",
        "coordinates": [
          [
            [
              7.9099,
              46.8252
            ],
            [
              7.9378,
              46.8797
            ],
            [
              7.9052,
              46.9262
            ],
            [
              7.9711,
              47.0762
            ],
            [
              7.8528,
              47.1081
            ],
            [
              7.6275,
              47.0727
            ],
            [
              7.4395,
              46.8996
            ],
            [
              7.4442,
              46.7225
            ],
            [
              7.558,
              46.7132
            ],
            [
              7.7364,
              46.6219
            ],
            [
              7.7937,
              46.6213
            ],
            [
              7.7517,
              46.7172
            ],
            [
              7.802,
              46.7577
            ],
            [
              7.9099,
              46.8252
            ]
          ]
        ]
      },
      "properties": {
        "id": "emmental",
        "region": "Emmental",
        "name": "Interlaken / Niederhorn",
        "elevation_ref": 1800,
        "reference_points": [
          [
            46.8241,
            7.6367
          ],
          [
            46.8325,
            7.9029
          ],
          [
            46.7384,
            7.4714
          ],
          [
            46.8571,
            7.5806
          ],
          [
            46.8816,
            7.5161
          ],
          [
            47.015,
            7.59
          ],
          [
            46.74,
            7.76
          ]
        ]
      }
    },
    {
      "type": "Feature",
      "geometry": {
        "type": "Polygon",
        "coordinates": [
          [
            [
              7.4395,
              46.8996
            ],
            [
              7.6275,
              47.0727
            ],
            [
              7.8528,
              47.1081
            ],
            [
              7.9711,
              47.0762
            ],
            [
              7.950323,
              47.385654
            ],
            [
              7.9503,
              47.386
            ],
            [
              7.7574,
              47.2973
            ],
            [
              7.5886,
              47.2484
            ],
            [
              7.3941,
              47.2095
            ],
            [
              7.3532,
              47.1769
            ],
            [
              7.1022,
              47.086
            ],
            [
              7.4395,
              46.8996
            ]
          ]
        ]
      },
      "properties": {
        "id": "seeland",
        "region": "Seeland",
        "name": "Belp / Bantiger",
        "elevation_ref": 600,
        "reference_points": [
          [
            47.321,
            7.8877
          ],
          [
            46.9047,
            7.4377
          ],
          [
            47.234,
            7.591
          ],
          [
            47.1161,
            7.8209
          ],
          [
            47.2044,
            7.8047
          ],
          [
            47.0698,
            7.4138
          ],
          [
            47.1443,
            7.5679
          ]
        ]
      }
    },
    {
      "type": "Feature",
      "geometry": {
        "type": "Polygon",
        "coordinates": [
          [
            [
              8.8844,
              47.0622
            ],
            [
              8.9662,
              47.1204
            ],
            [
              8.9642,
              47.1804
            ],
            [
              8.7675,
              47.1782
            ],
            [
              8.6632,
              47.1595
            ],
            [
              8.3929,
              47.1501
            ],
            [
              8.3877,
              47.0846
            ],
            [
              8.2886,
              47.0302
            ],
            [
              7.9711,
              47.0762
            ],
            [
              7.9052,
              46.9262
            ],
            [
              7.9378,
              46.8797
            ],
            [
              7.9099,
              46.8252
            ],
            [
              8.1856,
              46.9845
            ],
            [
              8.2543,
              46.9791
            ],
            [
              8.6101,
              47.0192
            ],
            [
              8.6884,
              47.031
            ],
            [
              8.8318,
              47.0448
            ],
            [
              8.8844,
              47.0622
            ]
          ]
        ]
      },
      "properties": {
        "id": "zentrale_voralpen",
        "region": "Zentrale Voralpen",
        "name": "Napf",
        "elevation_ref": 1400,
        "reference_points": [
          [
            47.004,
            7.9405
          ],
          [
            47.0812,
            8.795
          ],
          [
            46.995,
            8.2766
          ],
          [
            47.0567,
            8.4862
          ],
          [
            47.0842,
            8.5795
          ],
          [
            47.1625,
            8.6859
          ],
          [
            47.0432,
            8.3177
          ]
        ]
      }
    },
    {
      "type": "Feature",
      "geometry": {
        "type": "Polygon",
        "coordinates": [
          [
            [
              7.9503,
              47.386
            ],
            [
              7.950323,
              47.385654
            ],
            [
              7.9711,
              47.0762
            ],
            [
              8.2886,
              47.0302
            ],
            [
              8.3877,
              47.0846
            ],
            [
              8.3929,
              47.1501
            ],
            [
              8.6632,
              47.1595
            ],
            [
              8.4995,
              47.2965
            ],
            [
              8.4696,
              47.4318
            ],
            [
              8.5606,
              47.6992
            ],
            [
              8.5395,
              47.7292
            ],
            [
              8.4267,
              47.7556
            ],
            [
              8.185,
              47.6382
            ],
            [
              7.9438,
              47.5709
            ],
            [
              7.9351,
              47.5309
            ],
            [
              8.0382,
              47.4259
            ],
            [
              7.9503,
              47.386
            ]
          ]
        ]
      },
      "properties": {
        "id": "zentrales_mittelland",
        "region": "Zentrales Mittelland",
        "name": "Hasliberg Planplatten",
        "elevation_ref": 600,
        "reference_points": [
          [
            47.7103,
            8.5267
          ],
          [
            47.0754,
            7.98
          ],
          [
            47.1636,
            8.6219
          ],
          [
            47.5289,
            8.0716
          ],
          [
            47.2354,
            8.1608
          ],
          [
            47.334,
            8.2849
          ],
          [
            47.4997,
            8.2785
          ]
        ]
      }
    },
    {
      "type": "Feature",
      "geometry": {
        "type": "Polygon",
        "coordinates": [
          [
            [
              8.743016,
              47.457354
            ],
            [
              8.5916,
              47.4154
            ],
            [
              8.4696,
              47.4318
            ],
            [
              8.4995,
              47.2965
            ],
            [
              8.6632,
              47.1595
            ],
            [
              8.7675,
              47.1782
            ],
            [
              8.9642,
              47.1804
            ],
            [
              8.9662,
              47.1204
            ],
            [
              9.0587,
              47.1285
            ],
            [
              9.0885,
              47.1624
            ],
            [
              9.0127,
              47.2588
            ],
            [
              8.8863,
              47.2942
            ],
            [
              8.743016,
              47.457354
            ]
          ]
        ]
      },
      "properties": {
        "id": "mittelland_ost",
        "region": "Mittelland Ost",
        "name": "Uetliberg Balderen",
        "elevation_ref": 730,
        "reference_points": [
          [
            47.3516,
            8.4906
          ],
          [
            47.3107,
            8.5073
          ],
          [
            47.2954,
            8.6699
          ],
          [
            47.2943,
            8.8859
          ],
          [
            47.1777,
            8.7638
          ],
          [
            47.3886,
            8.5578
          ],
          [
            47.1475,
            9.0359
          ]
        ]
      }
    },
    {
      "type": "Feature",
      "geometry": {
        "type": "Polygon",
        "coordinates": [
          [
            [
              9.7232,
              47.5871
            ],
            [
              9.5926,
              47.611
            ],
            [
              9.574,
              47.6829
            ],
            [
              9.4345,
              47.7183
            ],
            [
              9.3909,
              47.7187
            ],
            [
              9.1758,
              47.8084
            ],
            [
              9.1036,
              47.8344
            ],
            [
              8.9016,
              47.8747
            ],
            [
              8.754,
              47.8799
            ],
            [
              8.5606,
              47.6992
            ],
            [
              8.4696,
              47.4318
            ],
            [
              8.5916,
              47.4154
            ],
            [
              8.743016,
              47.457354
            ],
            [
              8.8215,
              47.4791
            ],
            [
              9.2728,
              47.3787
            ],
            [
              9.4804,
              47.4424
            ],
            [
              9.7232,
              47.5871
            ]
          ]
        ]
      },
      "properties": {
        "id": "bodenseeraum",
        "region": "Bodenseeraum",
        "name": "Eggberge Altdorf",
        "elevation_ref": 1500,
        "reference_points": [
          [
            47.6446,
            8.6719
          ],
          [
            47.7729,
            8.6545
          ],
          [
            47.5521,
            8.8996
          ],
          [
            47.66,
            8.86
          ],
          [
            47.57,
            9.37
          ],
          [
            47.48,
            9.0
          ],
          [
            47.5081,
            8.6353
          ]
        ]
      }
    }
  ]
}