{
  "type": "FeatureCollection",
  "features": [
    {
      "type": "Feature",
      "geometry": {
        "type": "Polygon",
        "coordinates": [
          [
            [
              7.7116,
              46.4113
            ],
            [
              7.6839,
              46.3762
            ],
            [
              7.7982,
              46.3757
            ],
            [
              7.8808,
              46.4117
            ],
            [
              7.9659,
              46.4058
            ],
            [
              8.0957,
              46.4511
            ],
            [
              8.209,
              46.5241
            ],
            [
              8.0982,
              46.5499
            ],
            [
              8.0586,
              46.5528
            ],
            [
              8.0288,
              46.5618
            ],
            [
              7.997,
              46.5586
            ],
            [
              7.9634,
              46.5379
            ],
            [
              7.9739,
              46.5215
            ],
            [
              7.9451,
              46.5074
            ],
            [
              7.9297,
              46.5001
            ],
            [
              7.8835,
              46.4796
            ],
            [
              7.8475,
              46.4785
            ],
            [
              7.7197,
              46.4176
            ],
            [
              7.7116,
              46.4113
            ]
          ]
        ]
      },
      "properties": {
        "id": "loetschental",
        "region": "Lötschental",
        "name": "Leukerbad / Loetschental",
        "purpose": "precipitation_only",
        "n_points": 16,
        "reference_points": [
          [
            46.4459,
            7.8725
          ],
          [
            46.4078,
            7.777
          ],
          [
            46.464,
            8.038
          ],
          [
            46.437,
            7.953
          ],
          [
            46.5107,
            8.1305
          ],
          [
            46.503,
            8.0409
          ],
          [
            46.4823,
            8.0855
          ],
          [
            46.435,
            7.8396
          ],
          [
            46.4922,
            7.9917
          ],
          [
            46.3999,
            7.7404
          ],
          [
            46.4749,
            7.9495
          ],
          [
            46.4507,
            7.9945
          ],
          [
            46.4191,
            7.8086
          ],
          [
            46.4491,
            7.9109
          ],
          [
            46.5217,
            8.0783
          ],
          [
            46.5296,
            8.0145
          ]
        ]
      }
    },
    {
      "type": "Feature",
      "geometry": {
        "type": "Polygon",
        "coordinates": [
          [
            [
              7.8132,
              46.2386
            ],
            [
              7.7672,
              46.2127
            ],
            [
              7.4292,
              46.1107
            ],
            [
              7.2737,
              46.0861
            ],
            [
              7.2181,
              46.0045
            ],
            [
              7.2931,
              45.9254
            ],
            [
              7.3878,
              45.8965
            ],
            [
              7.575,
              45.9847
            ],
            [
              7.8649,
              45.9183
            ],
            [
              7.8787,
              45.9766
            ],
            [
              7.9086,
              45.9973
            ],
            [
              7.9887,
              45.9968
            ],
            [
              8.0404,
              46.0489
            ],
            [
              8.0193,
              46.0706
            ],
            [
              8.0346,
              46.1009
            ],
            [
              7.9916,
              46.2034
            ],
            [
              7.8132,
              46.2386
            ]
          ]
        ]
      },
      "properties": {
        "id": "walliser_hochalpen",
        "region": "Walliser Hochalpen",
        "name": "Graehen",
        "purpose": "precipitation_only",
        "n_points": 16,
        "reference_points": [
          [
            46.1686,
            7.8509
          ],
          [
            46.0122,
            7.3054
          ],
          [
            46.0071,
            7.7552
          ],
          [
            46.0643,
            7.5595
          ],
          [
            45.9977,
            7.4729
          ],
          [
            46.0664,
            7.4762
          ],
          [
            46.1408,
            7.9428
          ],
          [
            46.029,
            7.6512
          ],
          [
            46.0797,
            7.7278
          ],
          [
            45.9644,
            7.3791
          ],
          [
            46.0433,
            7.3889
          ],
          [
            46.1151,
            7.647
          ],
          [
            46.0857,
            7.838
          ],
          [
            46.1483,
            7.7596
          ],
          [
            46.0053,
            7.838
          ],
          [
            46.0612,
            7.9443
          ]
        ]
      }
    },
    {
      "type": "Feature",
      "geometry": {
        "type": "Polygon",
        "coordinates": [
          [
            [
              7.7116,
              46.4113
            ],
            [
              7.6273,
              46.4439
            ],
            [
              7.5368,
              46.3981
            ],
            [
              7.228,
              46.3449
            ],
            [
              7.1357,
              46.2344
            ],
            [
              7.0817,
              46.1928
            ],
            [
              7.0712,
              46.1439
            ],
            [
              7.1267,
              46.0936
            ],
            [
              7.0742,
              46.0482
            ],
            [
              7.0058,
              46.0673
            ],
            [
              6.9495,
              46.1718
            ],
            [
              6.8952,
              46.1214
            ],
            [
              6.8675,
              46.0507
            ],
            [
              6.8794,
              46.0403
            ],
            [
              7.0103,
              45.996
            ],
            [
              7.0959,
              45.8627
            ],
            [
              7.1696,
              45.8668
            ],
            [
              7.2931,
              45.9254
            ],
            [
              7.2181,
              46.0045
            ],
            [
              7.2737,
              46.0861
            ],
            [
              7.4292,
              46.1107
            ],
            [
              7.7672,
              46.2127
            ],
            [
              7.8132,
              46.2386
            ],
            [
              7.7982,
              46.3757
            ],
            [
              7.6839,
              46.3762
            ],
            [
              7.7116,
              46.4113
            ]
          ]
        ]
      },
      "properties": {
        "id": "unterwallis",
        "region": "Unterwallis",
        "name": "Verbier Les Ruinettes",
        "purpose": "precipitation_only",
        "n_points": 16,
        "reference_points": [
          [
            46.3416,
            7.613
          ],
          [
            45.9944,
            7.1184
          ],
          [
            46.1902,
            7.3691
          ],
          [
            46.25,
            7.2496
          ],
          [
            46.0782,
            7.1884
          ],
          [
            46.1663,
            7.1864
          ],
          [
            46.2897,
            7.7152
          ],
          [
            46.2928,
            7.429
          ],
          [
            46.2048,
            7.4514
          ],
          [
            46.078,
            6.9391
          ],
          [
            45.9425,
            7.1592
          ],
          [
            46.1694,
            7.2832
          ],
          [
            46.3113,
            7.5232
          ],
          [
            46.2768,
            7.3353
          ],
          [
            46.2553,
            7.6244
          ],
          [
            46.2291,
            7.5348
          ]
        ]
      }
    },
    {
      "type": "Feature",
      "geometry": {
        "type": "Polygon",
        "coordinates": [
          [
            [
              7.228,
              46.3449
            ],
            [
              7.1962,
              46.3787
            ],
            [
              7.0121,
              46.376
            ],
            [
              6.9762,
              46.4312
            ],
            [
              6.9784,
              46.4736
            ],
            [
              6.8656,
              46.4933
            ],
            [
              6.7207,
              46.3874
            ],
            [
              6.8607,
              46.2776
            ],
            [
              6.7904,
              46.1598
            ],
            [
              6.8952,
              46.1214
            ],
            [
              6.9495,
              46.1718
            ],
            [
              7.0058,
              46.0673
            ],
            [
              7.0742,
              46.0482
            ],
            [
              7.1267,
              46.0936
            ],
            [
              7.0712,
              46.1439
            ],
            [
              7.0817,
              46.1928
            ],
            [
              7.1357,
              46.2344
            ],
            [
              7.228,
              46.3449
            ]
          ]
        ]
      },
      "properties": {
        "id": "waadtlaender_alpen",
        "region": "Waadtlaender Alpen",
        "name": "Col du Pillon / Leysin",
        "purpose": "precipitation_only",
        "n_points": 16,
        "reference_points": [
          [
            46.2007,
            6.8851
          ],
          [
            46.3807,
            6.8192
          ],
          [
            46.319,
            7.0465
          ],
          [
            46.3782,
            6.9322
          ],
          [
            46.3222,
            7.1307
          ],
          [
            46.1154,
            7.038
          ],
          [
            46.2736,
            7.0869
          ],
          [
            46.4293,
            6.9121
          ],
          [
            46.2801,
            6.9183
          ],
          [
            46.3417,
            6.8806
          ],
          [
            46.333,
            6.9667
          ],
          [
            46.2362,
            7.0347
          ],
          [
            46.4138,
            6.8631
          ],
          [
            46.2277,
            6.9549
          ],
          [
            46.1802,
            7.0129
          ],
          [
            46.2797,
            6.9917
          ]
        ]
      }
    },
    {
      "type": "Feature",
      "geometry": {
        "type": "Polygon",
        "coordinates": [
          [
            [
              7.7982,
              46.3757
            ],
            [
              7.8132,
              46.2386
            ],
            [
              7.9916,
              46.2034
            ],
            [
              8.1081,
              46.2502
            ],
            [
              8.0817,
              46.2604
            ],
            [
              8.1399,
              46.3011
            ],
            [
              8.1762,
              46.2966
            ],
            [
              8.3148,
              46.3769
            ],
            [
              8.3142,
              46.3994
            ],
            [
              8.2909,
              46.4081
            ],
            [
              8.3837,
              46.453
            ],
            [
              8.3911,
              46.4943
            ],
            [
              8.4832,
              46.5312
            ],
            [
              8.4836,
              46.619
            ],
            [
              8.4099,
              46.6536
            ],
            [
              8.3716,
              46.6325
            ],
            [
              8.3434,
              46.5636
            ],
            [
              8.209,
              46.5241
            ],
            [
              8.0957,
              46.4511
            ],
            [
              7.9659,
              46.4058
            ],
            [
              7.8808,
              46.4117
            ],
            [
              7.7982,
              46.3757
            ]
          ]
        ]
      },
      "properties": {
        "id": "oberwallis_goms",
        "region": "Oberwallis / Goms",
        "name": "Fiescheralp / Kühboden",
        "purpose": "precipitation_only",
        "n_points": 16,
        "reference_points": [
          [
            46.4583,
            8.2207
          ],
          [
            46.3379,
            7.8632
          ],
          [
            46.5018,
            8.3369
          ],
          [
            46.3652,
            8.0356
          ],
          [
            46.2728,
            7.9597
          ],
          [
            46.3406,
            7.9786
          ],
          [
            46.3605,
            8.1647
          ],
          [
            46.3894,
            8.1024
          ],
          [
            46.4232,
            8.1616
          ],
          [
            46.2836,
            7.8852
          ],
          [
            46.3444,
            7.9194
          ],
          [
            46.2882,
            8.025
          ],
          [
            46.4751,
            8.2789
          ],
          [
            46.3978,
            8.2261
          ],
          [
            46.5714,
            8.4131
          ],
          [
            46.3317,
            8.0847
          ]
        ]
      }
    },
    {
      "type": "Feature",
      "geometry": {
        "type": "Polygon",
        "coordinates": [
          [
            [
              8.3837,
              46.453
            ],
            [
              8.4498,
              46.4636
            ],
            [
              8.4642,
              46.447
            ],
            [
              8.4652,
              46.331
            ],
            [
              8.3879,
              46.2469
            ],
            [
              8.4617,
              46.2444
            ],
            [
              8.6012,
              46.286
            ],
            [
              8.6715,
              46.3185
            ],
            [
              8.7151,
              46.3525
            ],
            [
              8.7418,
              46.4054
            ],
            [
              8.8059,
              46.3779
            ],
            [
              8.832,
              46.3665
            ],
            [
              8.8631,
              46.3484
            ],
            [
              9.158,
              46.3404
            ],
            [
              9.1713,
              46.3733
            ],
            [
              9.1586,
              46.4177
            ],
            [
              9.1356,
              46.4658
            ],
            [
              9.1115,
              46.4793
            ],
            [
              9.0478,
              46.4776
            ],
            [
              9.0388,
              46.4927
            ],
            [
              9.0226,
              46.5108
            ],
            [
              9.0281,
              46.5681
            ],
            [
              9.0422,
              46.5848
            ],
            [
              9.033,
              46.6
            ],
            [
              8.9194,
              46.5987
            ],
            [
              8.8437,
              46.5633
            ],
            [
              8.6146,
              46.5786
            ],
            [
              8.4832,
              46.5312
            ],
            [
              8.3911,
              46.4943
            ],
            [
              8.3837,
              46.453
            ]
          ]
        ]
      },
      "properties": {
        "id": "leventina_blenio",
        "region": "Leventina / Blenio",
        "name": "Carì",
        "purpose": "precipitation_only",
        "n_points": 16,
        "reference_points": [
          [
            46.4716,
            8.967
          ],
          [
            46.3954,
            8.534
          ],
          [
            46.4906,
            8.7766
          ],
          [
            46.3578,
            8.6142
          ],
          [
            46.5123,
            8.6165
          ],
          [
            46.3156,
            8.5173
          ],
          [
            46.4068,
            9.0916
          ],
          [
            46.5076,
            8.7015
          ],
          [
            46.4321,
            8.8281
          ],
          [
            46.4804,
            8.5217
          ],
          [
            46.4396,
            8.6025
          ],
          [
            46.4222,
            8.6841
          ],
          [
            46.4121,
            8.9112
          ],
          [
            46.506,
            8.8729
          ],
          [
            46.4087,
            9.0076
          ],
          [
            46.5423,
            8.9543
          ]
        ]
      }
    },
    {
      "type": "Feature",
      "geometry": {
        "type": "Polygon",
        "coordinates": [
          [
            [
              8.4617,
              46.2444
            ],
            [
              8.4236,
              46.2182
            ],
            [
              8.5079,
              46.1067
            ],
            [
              8.6125,
              46.1221
            ],
            [
              8.6475,
              46.1237
            ],
            [
              8.8006,
              46.0946
            ],
            [
              8.8664,
              46.1036
            ],
            [
              9.0338,
              46.1465
            ],
            [
              9.1047,
              46.1384
            ],
            [
              9.1557,
              46.1619
            ],
            [
              9.1941,
              46.1778
            ],
            [
              9.2009,
              46.2074
            ],
            [
              9.2139,
              46.2101
            ],
            [
              9.2226,
              46.2241
            ],
            [
              9.2969,
              46.3206
            ],
            [
              9.2667,
              46.4509
            ],
            [
              9.2371,
              46.4879
            ],
            [
              9.169284,
              46.482777
            ],
            [
              9.11324,
              46.479405
            ],
            [
              9.1115,
              46.4793
            ],
            [
              9.1356,
              46.4658
            ],
            [
              9.1586,
              46.4177
            ],
            [
              9.1713,
              46.3733
            ],
            [
              9.158,
              46.3404
            ],
            [
              8.8631,
              46.3484
            ],
            [
              8.832,
              46.3665
            ],
            [
              8.8059,
              46.3779
            ],
            [
              8.7418,
              46.4054
            ],
            [
              8.7151,
              46.3525
            ],
            [
              8.6715,
              46.3185
            ],
            [
              8.6012,
              46.286
            ],
            [
              8.4617,
              46.2444
            ]
          ]
        ]
      },
      "properties": {
        "id": "locarnese_bellinzonese",
        "region": "Locarnese / Bellinzonese",
        "name": "Locarno Cimetta",
        "purpose": "precipitation_only",
        "n_points": 16,
        "reference_points": [
          [
            46.4098,
            9.2179
          ],
          [
            46.1898,
            8.5303
          ],
          [
            46.1998,
            8.9586
          ],
          [
            46.2378,
            8.7902
          ],
          [
            46.3158,
            8.7775
          ],
          [
            46.26,
            8.6952
          ],
          [
            46.3167,
            9.2154
          ],
          [
            46.2783,
            8.8774
          ],
          [
            46.279,
            8.9759
          ],
          [
            46.206,
            8.6133
          ],
          [
            46.1801,
            8.7044
          ],
          [
            46.1604,
            8.7938
          ],
          [
            46.2065,
            9.0578
          ],
          [
            46.1835,
            8.8761
          ],
          [
            46.2449,
            9.1481
          ],
          [
            46.2827,
            9.0739
          ]
        ]
      }
    },
    {
      "type": "Feature",
      "geometry": {
        "type": "Polygon",
        "coordinates": [
          [
            [
              9.1115,
              46.4793
            ],
            [
              9.11324,
              46.479405
            ],
            [
              9.169284,
              46.482777
            ],
            [
              9.2371,
              46.4879
            ],
            [
              9.2667,
              46.4509
            ],
            [
              9.2833,
              46.4964
            ],
            [
              9.3638,
              46.5072
            ],
            [
              9.4028,
              46.4137
            ],
            [
              9.4215,
              46.3589
            ],
            [
              9.5457,
              46.3701
            ],
            [
              9.5702,
              46.3996
            ],
            [
              9.6672,
              46.4165
            ],
            [
              9.7467,
              46.4494
            ],
            [
              9.7045,
              46.475
            ],
            [
              9.6954,
              46.5448
            ],
            [
              9.8286,
              46.5714
            ],
            [
              9.8785,
              46.6198
            ],
            [
              9.8307,
              46.6754
            ],
            [
              9.7202,
              46.7541
            ],
            [
              9.6491,
              46.7206
            ],
            [
              9.6117,
              46.7281
            ],
            [
              9.5996,
              46.7608
            ],
            [
              9.5698,
              46.803
            ],
            [
              9.379,
              46.7703
            ],
            [
              9.2706,
              46.5781
            ],
            [
              9.118,
              46.5218
            ],
            [
              9.1025,
              46.5091
            ],
            [
              9.0226,
              46.5108
            ],
            [
              9.0388,
              46.4927
            ],
            [
              9.0478,
              46.4776
            ],
            [
              9.1115,
              46.4793
            ]
          ]
        ]
      },
      "properties": {
        "id": "mittelbuenden",
        "region": "Mittelbünden",
        "name": "Scuol Motta Naluns",
        "purpose": "precipitation_only",
        "n_points": 16,
        "reference_points": [
          [
            46.6667,
            9.7009
          ],
          [
            46.5772,
            9.3627
          ],
          [
            46.5624,
            9.5569
          ],
          [
            46.7128,
            9.4443
          ],
          [
            46.5767,
            9.4565
          ],
          [
            46.5036,
            9.4482
          ],
          [
            46.5888,
            9.6546
          ],
          [
            46.6409,
            9.5038
          ],
          [
            46.6536,
            9.5994
          ],
          [
            46.5399,
            9.2819
          ],
          [
            46.6505,
            9.397
          ],
          [
            46.4307,
            9.4794
          ],
          [
            46.4898,
            9.6294
          ],
          [
            46.7207,
            9.5339
          ],
          [
            46.6283,
            9.7702
          ],
          [
            46.4743,
            9.5466
          ]
        ]
      }
    },
    {
      "type": "Feature",
      "geometry": {
        "type": "Polygon",
        "coordinates": [
          [
            [
              9.6672,
              46.4165
            ],
            [
              9.7681,
              46.3389
            ],
            [
              9.9581,
              46.3786
            ],
            [
              10.1209,
              46.4296
            ],
            [
              10.1835,
              46.4449
            ],
            [
              10.2175,
              46.4991
            ],
            [
              10.1956,
              46.566
            ],
            [
              10.3899,
              46.6623
            ],
            [
              10.1138,
              46.7247
            ],
            [
              10.0914,
              46.8578
            ],
            [
              9.9886,
              46.7911
            ],
            [
              9.8785,
              46.6198
            ],
            [
              9.8286,
              46.5714
            ],
            [
              9.6954,
              46.5448
            ],
            [
              9.7045,
              46.475
            ],
            [
              9.7467,
              46.4494
            ],
            [
              9.6672,
              46.4165
            ]
          ]
        ]
      },
      "properties": {
        "id": "oberengadin",
        "region": "Oberengadin",
        "name": "Muottas Muragl",
        "purpose": "precipitation_only",
        "n_points": 16,
        "reference_points": [
          [
            46.6415,
            10.198
          ],
          [
            46.4157,
            9.8026
          ],
          [
            46.4772,
            10.0412
          ],
          [
            46.5319,
            9.9784
          ],
          [
            46.4555,
            9.9558
          ],
          [
            46.4422,
            9.8771
          ],
          [
            46.7356,
            10.0411
          ],
          [
            46.5471,
            10.0624
          ],
          [
            46.6604,
            10.0942
          ],
          [
            46.4959,
            9.8006
          ],
          [
            46.5269,
            9.8914
          ],
          [
            46.6,
            9.9477
          ],
          [
            46.5084,
            10.1294
          ],
          [
            46.6715,
            9.9966
          ],
          [
            46.5939,
            10.1276
          ],
          [
            46.6087,
            10.0313
          ]
        ]
      }
    },
    {
      "type": "Feature",
      "geometry": {
        "type": "Polygon",
        "coordinates": [
          [
            [
              9.8785,
              46.6198
            ],
            [
              9.9886,
              46.7911
            ],
            [
              10.0914,
              46.8578
            ],
            [
              10.0165,
              46.9014
            ],
            [
              9.8731,
              46.9289
            ],
            [
              9.8748,
              47.0198
            ],
            [
              9.7093,
              47.0519
            ],
            [
              9.5561,
              47.0511
            ],
            [
              9.6021,
              47.0102
            ],
            [
              9.6141,
              46.8712
            ],
            [
              9.5698,
              46.803
            ],
            [
              9.5996,
              46.7608
            ],
            [
              9.6117,
              46.7281
            ],
            [
              9.6491,
              46.7206
            ],
            [
              9.7202,
              46.7541
            ],
            [
              9.8307,
              46.6754
            ],
            [
              9.8785,
              46.6198
            ]
          ]
        ]
      },
      "properties": {
        "id": "praettigau_davos",
        "region": "Prättigau - Davos",
        "name": "Fanas Eggli",
        "purpose": "precipitation_only",
        "n_points": 16,
        "reference_points": [
          [
            46.8257,
            9.8374
          ],
          [
            46.8008,
            9.6489
          ],
          [
            46.9666,
            9.8052
          ],
          [
            46.8945,
            9.6753
          ],
          [
            46.8641,
            9.7575
          ],
          [
            46.8227,
            9.704
          ],
          [
            46.7226,
            9.8744
          ],
          [
            46.7975,
            9.7703
          ],
          [
            46.7595,
            9.8252
          ],
          [
            46.9795,
            9.6672
          ],
          [
            46.988,
            9.7332
          ],
          [
            46.9264,
            9.7412
          ],
          [
            46.7892,
            9.9096
          ],
          [
            46.8945,
            9.8206
          ],
          [
            46.8487,
            9.9713
          ],
          [
            46.861,
            9.897
          ]
        ]
      }
    },
    {
      "type": "Feature",
      "geometry": {
        "type": "Polygon",
        "coordinates": [
          [
            [
              9.5698,
              46.803
            ],
            [
              9.6141,
              46.8712
            ],
            [
              9.6021,
              47.0102
            ],
            [
              9.5561,
              47.0511
            ],
            [
              9.629,
              47.1832
            ],
            [
              9.7639,
              47.2833
            ],
            [
              9.7811,
              47.516
            ],
            [
              9.7232,
              47.5871
            ],
            [
              9.4804,
              47.4424
            ],
            [
              9.513,
              47.3099
            ],
            [
              9.3498,
              47.2144
            ],
            [
              9.3955,
              47.1306
            ],
            [
              9.4148,
              47.1099
            ],
            [
              9.4267,
              47.0987
            ],
            [
              9.3992,
              46.9737
            ],
            [
              9.3844,
              46.8977
            ],
            [
              9.379,
              46.7703
            ],
            [
              9.5698,
              46.803
            ]
          ]
        ]
      },
      "properties": {
        "id": "rheintal",
        "region": "Rheintal",
        "name": "Santa Maria in Calanca",
        "purpose": "precipitation_only",
        "n_points": 16,
        "reference_points": [
          [
            47.4806,
            9.7103
          ],
          [
            46.8545,
            9.4525
          ],
          [
            47.1809,
            9.5539
          ],
          [
            47.1127,
            9.4997
          ],
          [
            47.1908,
            9.4527
          ],
          [
            47.0283,
            9.4842
          ],
          [
            47.2724,
            9.642
          ],
          [
            47.329,
            9.5755
          ],
          [
            47.4137,
            9.5669
          ],
          [
            46.9405,
            9.4616
          ],
          [
            46.8756,
            9.5338
          ],
          [
            46.9625,
            9.5394
          ],
          [
            47.4521,
            9.6433
          ],
          [
            47.2481,
            9.5416
          ],
          [
            47.3554,
            9.7086
          ],
          [
            47.3661,
            9.6417
          ]
        ]
      }
    },
    {
      "type": "Feature",
      "geometry": {
        "type": "Polygon",
        "coordinates": [
          [
            [
              9.4804,
              47.4424
            ],
            [
              9.2728,
              47.3787
            ],
            [
              8.8215,
              47.4791
            ],
            [
              8.743016,
              47.457354
            ],
            [
              8.8863,
              47.2942
            ],
            [
              9.0127,
              47.2588
            ],
            [
              9.0885,
              47.1624
            ],
            [
              9.2131,
              47.1476
            ],
            [
              9.3132,
              47.1545
            ],
            [
              9.4148,
              47.1099
            ],
            [
              9.3955,
              47.1306
            ],
            [
              9.3498,
              47.2144
            ],
            [
              9.513,
              47.3099
            ],
            [
              9.4804,
              47.4424
            ]
          ]
        ]
      },
      "properties": {
        "id": "alpstein",
        "region": "Alpstein / Toggenburg",
        "name": "Ebenalp",
        "purpose": "precipitation_only",
        "n_points": 16,
        "reference_points": [
          [
            47.3041,
            9.3941
          ],
          [
            47.3549,
            8.9081
          ],
          [
            47.2333,
            9.1238
          ],
          [
            47.2885,
            9.0674
          ],
          [
            47.3265,
            8.9859
          ],
          [
            47.3953,
            8.9567
          ],
          [
            47.3443,
            9.341
          ],
          [
            47.3093,
            9.2547
          ],
          [
            47.2204,
            9.2011
          ],
          [
            47.4168,
            8.8553
          ],
          [
            47.3692,
            9.043
          ],
          [
            47.3457,
            9.1197
          ],
          [
            47.2725,
            9.3228
          ],
          [
            47.2134,
            9.282
          ],
          [
            47.358,
            9.4374
          ],
          [
            47.3176,
            9.1836
          ]
        ]
      }
    },
    {
      "type": "Feature",
      "geometry": {
        "type": "Polygon",
        "coordinates": [
          [
            [
              8.4832,
              46.5312
            ],
            [
              8.6146,
              46.5786
            ],
            [
              8.6361,
              46.6834
            ],
            [
              8.8766,
              46.8131
            ],
            [
              8.8585,
              46.8815
            ],
            [
              8.9494,
              46.9696
            ],
            [
              8.8844,
              47.0622
            ],
            [
              8.8318,
              47.0448
            ],
            [
              8.6884,
              47.031
            ],
            [
              8.6101,
              47.0192
            ],
            [
              8.2543,
              46.9791
            ],
            [
              8.1856,
              46.9845
            ],
            [
              7.9099,
              46.8252
            ],
            [
              7.9753,
              46.7899
            ],
            [
              8.09,
              46.7876
            ],
            [
              8.2797,
              46.7521
            ],
            [
              8.3688,
              46.7884
            ],
            [
              8.4483,
              46.7645
            ],
            [
              8.4099,
              46.6536
            ],
            [
              8.4836,
              46.619
            ],
            [
              8.4832,
              46.5312
            ]
          ]
        ]
      },
      "properties": {
        "id": "zentralschweizer_alpen",
        "region": "Zentralschweizer Alpen",
        "name": "Engelberg Brunni",
        "purpose": "precipitation_only",
        "n_points": 16,
        "reference_points": [
          [
            46.9114,
            8.3481
          ],
          [
            46.9092,
            8.2305
          ],
          [
            46.9237,
            8.5873
          ],
          [
            46.7616,
            8.6043
          ],
          [
            46.9628,
            8.82
          ],
          [
            46.8234,
            8.6735
          ],
          [
            46.8559,
            8.7699
          ],
          [
            46.8376,
            8.2823
          ],
          [
            46.7186,
            8.5115
          ],
          [
            46.8515,
            8.0798
          ],
          [
            46.9234,
            8.4716
          ],
          [
            46.8296,
            8.5297
          ],
          [
            46.8587,
            8.1701
          ],
          [
            46.851,
            8.4197
          ],
          [
            46.9421,
            8.7
          ],
          [
            46.6506,
            8.5541
          ]
        ]
      }
    },
    {
      "type": "Feature",
      "geometry": {
        "type": "Polygon",
        "coordinates": [
          [
            [
              9.0226,
              46.5108
            ],
            [
              9.1025,
              46.5091
            ],
            [
              9.118,
              46.5218
            ],
            [
              9.2706,
              46.5781
            ],
            [
              9.379,
              46.7703
            ],
            [
              9.3844,
              46.8977
            ],
            [
              9.2479,
              46.916
            ],
            [
              9.1107,
              46.8504
            ],
            [
              9.095,
              46.8707
            ],
            [
              9.0639,
              46.8749
            ],
            [
              9.0472,
              46.8666
            ],
            [
              9.0218,
              46.8174
            ],
            [
              8.9266,
              46.7973
            ],
            [
              8.8766,
              46.8131
            ],
            [
              8.6361,
              46.6834
            ],
            [
              8.6146,
              46.5786
            ],
            [
              8.8437,
              46.5633
            ],
            [
              8.9194,
              46.5987
            ],
            [
              9.033,
              46.6
            ],
            [
              9.0422,
              46.5848
            ],
            [
              9.0281,
              46.5681
            ],
            [
              9.0226,
              46.5108
            ]
          ]
        ]
      },
      "properties": {
        "id": "surselva",
        "region": "Surselva",
        "name": "Flims Crap Sogn Gion",
        "purpose": "precipitation_only",
        "n_points": 16,
        "reference_points": [
          [
            46.826,
            9.2183
          ],
          [
            46.6453,
            8.7114
          ],
          [
            46.6858,
            9.0975
          ],
          [
            46.6553,
            8.8923
          ],
          [
            46.7363,
            8.9134
          ],
          [
            46.6675,
            8.9957
          ],
          [
            46.6695,
            9.245
          ],
          [
            46.7899,
            9.1025
          ],
          [
            46.5906,
            9.0986
          ],
          [
            46.6317,
            8.8027
          ],
          [
            46.7093,
            8.8152
          ],
          [
            46.7454,
            9.0182
          ],
          [
            46.7513,
            9.2841
          ],
          [
            46.6245,
            9.1789
          ],
          [
            46.8338,
            9.3113
          ],
          [
            46.738,
            9.1802
          ]
        ]
      }
    },
    {
      "type": "Feature",
      "geometry": {
        "type": "Polygon",
        "coordinates": [
          [
            [
              9.4148,
              47.1099
            ],
            [
              9.3132,
              47.1545
            ],
            [
              9.2131,
              47.1476
            ],
            [
              9.0885,
              47.1624
            ],
            [
              9.0587,
              47.1285
            ],
            [
              8.9662,
              47.1204
            ],
            [
              8.8844,
              47.0622
            ],
            [
              8.9494,
              46.9696
            ],
            [
              8.8585,
              46.8815
            ],
            [
              8.8766,
              46.8131
            ],
            [
              8.9266,
              46.7973
            ],
            [
              9.0218,
              46.8174
            ],
            [
              9.0472,
              46.8666
            ],
            [
              9.0639,
              46.8749
            ],
            [
              9.095,
              46.8707
            ],
            [
              9.1107,
              46.8504
            ],
            [
              9.2479,
              46.916
            ],
            [
              9.3844,
              46.8977
            ],
            [
              9.3992,
              46.9737
            ],
            [
              9.4267,
              47.0987
            ],
            [
              9.4148,
              47.1099
            ]
          ]
        ]
      },
      "properties": {
        "id": "glarner_alpen",
        "region": "Glarner Alpen",
        "name": "Schrina",
        "purpose": "precipitation_only",
        "n_points": 16,
        "reference_points": [
          [
            47.0783,
            9.2099
          ],
          [
            47.0504,
            8.9733
          ],
          [
            47.0028,
            9.2695
          ],
          [
            46.8958,
            8.9869
          ],
          [
            47.0025,
            9.0819
          ],
          [
            46.9802,
            9.0052
          ],
          [
            47.0893,
            9.2872
          ],
          [
            46.9324,
            9.1363
          ],
          [
            47.0953,
            9.1259
          ],
          [
            46.863,
            8.9314
          ],
          [
            46.9309,
            9.0599
          ],
          [
            47.0661,
            9.0482
          ],
          [
            46.9706,
            9.3336
          ],
          [
            47.0207,
            9.1529
          ],
          [
            47.0579,
            9.3536
          ],
          [
            46.9679,
            9.2082
          ]
        ]
      }
    },
    {
      "type": "Feature",
      "geometry": {
        "type": "Polygon",
        "coordinates": [
          [
            [
              8.209,
              46.5241
            ],
            [
              8.3434,
              46.5636
            ],
            [
              8.3716,
              46.6325
            ],
            [
              8.4099,
              46.6536
            ],
            [
              8.4483,
              46.7645
            ],
            [
              8.3688,
              46.7884
            ],
            [
              8.2797,
              46.7521
            ],
            [
              8.09,
              46.7876
            ],
            [
              7.9753,
              46.7899
            ],
            [
              7.9099,
              46.8252
            ],
            [
              7.802,
              46.7577
            ],
            [
              7.7517,
              46.7172
            ],
            [
              7.7937,
              46.6213
            ],
            [
              7.8188,
              46.5614
            ],
            [
              7.803,
              46.5123
            ],
            [
              7.8475,
              46.4785
            ],
            [
              7.8835,
              46.4796
            ],
            [
              7.9297,
              46.5001
            ],
            [
              7.9451,
              46.5074
            ],
            [
              7.9739,
              46.5215
            ],
            [
              7.9634,
              46.5379
            ],
            [
              7.997,
              46.5586
            ],
            [
              8.0288,
              46.5618
            ],
            [
              8.0586,
              46.5528
            ],
            [
              8.0982,
              46.5499
            ],
            [
              8.209,
              46.5241
            ]
          ]
        ]
      },
      "properties": {
        "id": "berner_alpen",
        "region": "Berner Alpen",
        "name": "Niederhorn",
        "purpose": "precipitation_only",
        "n_points": 16,
        "reference_points": [
          [
            46.6975,
            8.1759
          ],
          [
            46.6279,
            7.8613
          ],
          [
            46.6349,
            8.3117
          ],
          [
            46.6748,
            7.9366
          ],
          [
            46.7493,
            7.9125
          ],
          [
            46.7029,
            7.8368
          ],
          [
            46.6939,
            8.2598
          ],
          [
            46.6331,
            8.0245
          ],
          [
            46.6221,
            8.1013
          ],
          [
            46.5451,
            7.8819
          ],
          [
            46.5981,
            7.9447
          ],
          [
            46.723,
            8.0082
          ],
          [
            46.6021,
            8.2453
          ],
          [
            46.6017,
            8.1747
          ],
          [
            46.7133,
            8.3605
          ],
          [
            46.7174,
            8.0933
          ]
        ]
      }
    },
    {
      "type": "Feature",
      "geometry": {
        "type": "Polygon",
        "coordinates": [
          [
            [
              7.8475,
              46.4785
            ],
            [
              7.803,
              46.5123
            ],
            [
              7.8188,
              46.5614
            ],
            [
              7.7937,
              46.6213
            ],
            [
              7.7364,
              46.6219
            ],
            [
              7.558,
              46.7132
            ],
            [
              7.4442,
              46.7225
            ],
            [
              7.2414,
              46.6439
            ],
            [
              7.2113,
              46.5817
            ],
            [
              7.1496,
              46.5936
            ],
            [
              7.1158,
              46.5796
            ],
            [
              7.1003,
              46.5156
            ],
            [
              7.0213,
              46.5545
            ],
            [
              6.9984,
              46.5483
            ],
            [
              6.9859,
              46.5335
            ],
            [
              6.9784,
              46.4736
            ],
            [
              6.9762,
              46.4312
            ],
            [
              7.0121,
              46.376
            ],
            [
              7.1962,
              46.3787
            ],
            [
              7.228,
              46.3449
            ],
            [
              7.5368,
              46.3981
            ],
            [
              7.6273,
              46.4439
            ],
            [
              7.7116,
              46.4113
            ],
            [
              7.7197,
              46.4176
            ],
            [
              7.8475,
              46.4785
            ]
          ]
        ]
      },
      "properties": {
        "id": "berner_oberland",
        "region": "Berner Oberland",
        "name": "Moléson",
        "purpose": "precipitation_only",
        "n_points": 16,
        "reference_points": [
          [
            46.4888,
            7.5381
          ],
          [
            46.4583,
            7.0469
          ],
          [
            46.5524,
            7.4617
          ],
          [
            46.5649,
            7.2852
          ],
          [
            46.4574,
            7.235
          ],
          [
            46.4169,
            7.3023
          ],
          [
            46.521,
            7.7358
          ],
          [
            46.6073,
            7.3701
          ],
          [
            46.4496,
            7.4403
          ],
          [
            46.4462,
            7.1373
          ],
          [
            46.523,
            7.1806
          ],
          [
            46.4901,
            7.3571
          ],
          [
            46.6176,
            7.5586
          ],
          [
            46.6513,
            7.4626
          ],
          [
            46.5892,
            7.6557
          ],
          [
            46.5056,
            7.6345
          ]
        ]
      }
    },
    {
      "type": "Feature",
      "geometry": {
        "type": "Polygon",
        "coordinates": [
          [
            [
              6.8656,
              46.4933
            ],
            [
              6.7223,
              46.5484
            ],
            [
              6.4749,
              46.7166
            ],
            [
              6.3542,
              46.5485
            ],
            [
              6.32,
              46.523
            ],
            [
              5.8785,
              46.202
            ],
            [
              5.8588,
              46.1493
            ],
            [
              5.9341,
              46.0581
            ],
            [
              6.0215,
              46.0917
            ],
            [
              6.1315,
              46.0789
            ],
            [
              6.2035,
              46.1693
            ],
            [
              6.3108,
              46.2118
            ],
            [
              6.5331,
              46.3746
            ],
            [
              6.7207,
              46.3874
            ],
            [
              6.8656,
              46.4933
            ]
          ]
        ]
      },
      "properties": {
        "id": "genferseeregion",
        "region": "Genferseeregion",
        "name": "Lavaux / Jorat",
        "purpose": "precipitation_only",
        "n_points": 16,
        "reference_points": [
          [
            46.4639,
            6.6022
          ],
          [
            46.1694,
            5.9817
          ],
          [
            46.3428,
            6.3442
          ],
          [
            46.2391,
            6.1615
          ],
          [
            46.2841,
            6.2591
          ],
          [
            46.1701,
            6.0901
          ],
          [
            46.4782,
            6.6887
          ],
          [
            46.4367,
            6.3447
          ],
          [
            46.5079,
            6.4308
          ],
          [
            46.2433,
            6.0694
          ],
          [
            46.316,
            6.1713
          ],
          [
            46.3744,
            6.2592
          ],
          [
            46.4066,
            6.4286
          ],
          [
            46.5863,
            6.4964
          ],
          [
            46.5405,
            6.5811
          ],
          [
            46.4672,
            6.5098
          ]
        ]
      }
    },
    {
      "type": "Feature",
      "geometry": {
        "type": "Polygon",
        "coordinates": [
          [
            [
              6.8656,
              46.4933
            ],
            [
              6.8461,
              46.6127
            ],
            [
              6.8989,
              46.709
            ],
            [
              7.1093,
              46.75
            ],
            [
              7.4395,
              46.8996
            ],
            [
              7.1022,
              47.086
            ],
            [
              6.8313,
              46.9566
            ],
            [
              6.7185,
              46.8608
            ],
            [
              6.6202,
              46.8427
            ],
            [
              6.5262,
              46.7888
            ],
            [
              6.4749,
              46.7166
            ],
            [
              6.7223,
              46.5484
            ],
            [
              6.8656,
              46.4933
            ]
          ]
        ]
      },
      "properties": {
        "id": "plateau",
        "region": "Plateau",
        "name": "Moudon",
        "purpose": "precipitation_only",
        "n_points": 16,
        "reference_points": [
          [
            46.7106,
            6.7908
          ],
          [
            46.8076,
            6.783
          ],
          [
            46.8206,
            7.0622
          ],
          [
            46.7818,
            6.8693
          ],
          [
            46.9073,
            7.2557
          ],
          [
            46.982,
            7.064
          ],
          [
            46.9604,
            7.1555
          ],
          [
            46.7312,
            6.6025
          ],
          [
            46.9236,
            6.9588
          ],
          [
            46.6746,
            6.6888
          ],
          [
            46.8747,
            6.868
          ],
          [
            46.8984,
            7.0513
          ],
          [
            46.7678,
            6.6901
          ],
          [
            46.6207,
            6.7672
          ],
          [
            46.8658,
            7.1557
          ],
          [
            46.8179,
            6.9622
          ]
        ]
      }
    },
    {
      "type": "Feature",
      "geometry": {
        "type": "Polygon",
        "coordinates": [
          [
            [
              7.1022,
              47.086
            ],
            [
              6.9557,
              47.2906
            ],
            [
              6.7768,
              47.1872
            ],
            [
              6.3184,
              47.0313
            ],
            [
              6.229,
              46.9353
            ],
            [
              6.1597,
              46.8673
            ],
            [
              6.4749,
              46.7166
            ],
            [
              6.5262,
              46.7888
            ],
            [
              6.6202,
              46.8427
            ],
            [
              6.7185,
              46.8608
            ],
            [
              6.8313,
              46.9566
            ],
            [
              7.1022,
              47.086
            ]
          ]
        ]
      },
      "properties": {
        "id": "neuenburger_jura",
        "region": "Neuenburger Jura",
        "name": "Mauborget / Suchet",
        "purpose": "precipitation_only",
        "n_points": 16,
        "reference_points": [
          [
            46.9111,
            6.4477
          ],
          [
            46.8254,
            6.4581
          ],
          [
            47.1404,
            6.852
          ],
          [
            47.0141,
            6.5599
          ],
          [
            47.1555,
            6.9595
          ],
          [
            46.9816,
            6.7279
          ],
          [
            47.0812,
            6.9193
          ],
          [
            46.895,
            6.298
          ],
          [
            46.9358,
            6.6422
          ],
          [
            46.8563,
            6.3742
          ],
          [
            46.9944,
            6.4691
          ],
          [
            47.048,
            6.6469
          ],
          [
            46.9604,
            6.3711
          ],
          [
            46.904,
            6.5425
          ],
          [
            47.043,
            6.8187
          ],
          [
            47.0888,
            6.7406
          ]
        ]
      }
    },
    {
      "type": "Feature",
      "geometry": {
        "type": "Polygon",
        "coordinates": [
          [
            [
              7.1022,
              47.086
            ],
            [
              7.3532,
              47.1769
            ],
            [
              7.3941,
              47.2095
            ],
            [
              7.5886,
              47.2484
            ],
            [
              7.7574,
              47.2973
            ],
            [
              7.7502,
              47.3504
            ],
            [
              7.7129,
              47.3758
            ],
            [
              7.58,
              47.3437
            ],
            [
              7.5289,
              47.32
            ],
            [
              7.4842,
              47.36
            ],
            [
              7.3604,
              47.3704
            ],
            [
              7.1255,
              47.3353
            ],
            [
              6.9557,
              47.2906
            ],
            [
              7.1022,
              47.086
            ]
          ]
        ]
      },
      "properties": {
        "id": "jura_zentral",
        "region": "Jura Zentral",
        "name": "Weissenstein",
        "purpose": "precipitation_only",
        "n_points": 16,
        "reference_points": [
          [
            47.2974,
            7.5943
          ],
          [
            47.2604,
            7.0456
          ],
          [
            47.2326,
            7.3279
          ],
          [
            47.1999,
            7.1826
          ],
          [
            47.2909,
            7.1992
          ],
          [
            47.1508,
            7.1318
          ],
          [
            47.2785,
            7.5022
          ],
          [
            47.3068,
            7.2869
          ],
          [
            47.3144,
            7.3641
          ],
          [
            47.2043,
            7.0912
          ],
          [
            47.2737,
            7.1262
          ],
          [
            47.1891,
            7.2534
          ],
          [
            47.3122,
            7.4465
          ],
          [
            47.2604,
            7.4058
          ],
          [
            47.3217,
            7.6826
          ],
          [
            47.2502,
            7.2521
          ]
        ]
      }
    },
    {
      "type": "Feature",
      "geometry": {
        "type": "Polygon",
        "coordinates": [
          [
            [
              7.7574,
              47.2973
            ],
            [
              7.9503,
              47.386
            ],
            [
              8.0382,
              47.4259
            ],
            [
              7.9351,
              47.5309
            ],
            [
              7.8737,
              47.5459
            ],
            [
              7.7993,
              47.5104
            ],
            [
              7.7007,
              47.5083
            ],
            [
              7.6386,
              47.5007
            ],
            [
              7.6211,
              47.4697
            ],
            [
              7.4258,
              47.463
            ],
            [
              7.2953,
              47.4994
            ],
            [
              6.9124,
              47.4897
            ],
            [
              6.9557,
              47.2906
            ],
            [
              7.1255,
              47.3353
            ],
            [
              7.3604,
              47.3704
            ],
            [
              7.4842,
              47.36
            ],
            [
              7.5289,
              47.32
            ],
            [
              7.58,
              47.3437
            ],
            [
              7.7129,
              47.3758
            ],
            [
              7.7502,
              47.3504
            ],
            [
              7.7574,
              47.2973
            ]
          ]
        ]
      },
      "properties": {
        "id": "tafeljura",
        "region": "Tafeljura",
        "name": "Wasserflue / Geissflue",
        "purpose": "precipitation_only",
        "n_points": 16,
        "reference_points": [
          [
            47.4066,
            7.8627
          ],
          [
            47.3604,
            6.998
          ],
          [
            47.402,
            7.5335
          ],
          [
            47.4273,
            7.2328
          ],
          [
            47.4457,
            7.0889
          ],
          [
            47.4141,
            7.1631
          ],
          [
            47.4855,
            7.8767
          ],
          [
            47.411,
            7.6195
          ],
          [
            47.4157,
            7.4307
          ],
          [
            47.438,
            6.9906
          ],
          [
            47.3772,
            7.0793
          ],
          [
            47.4278,
            7.3194
          ],
          [
            47.3784,
            7.7852
          ],
          [
            47.4431,
            7.6964
          ],
          [
            47.4429,
            7.9445
          ],
          [
            47.4556,
            7.7844
          ]
        ]
      }
    },
    {
      "type": "Feature",
      "geometry": {
        "type": "Polygon",
        "coordinates": [
          [
            [
              6.9784,
              46.4736
            ],
            [
              6.9859,
              46.5335
            ],
            [
              6.9984,
              46.5483
            ],
            [
              7.0213,
              46.5545
            ],
            [
              7.1003,
              46.5156
            ],
            [
              7.1158,
              46.5796
            ],
            [
              7.1496,
              46.5936
            ],
            [
              7.2113,
              46.5817
            ],
            [
              7.2414,
              46.6439
            ],
            [
              7.4442,
              46.7225
            ],
            [
              7.4395,
              46.8996
            ],
            [
              7.1093,
              46.75
            ],
            [
              6.8989,
              46.709
            ],
            [
              6.8461,
              46.6127
            ],
            [
              6.8656,
              46.4933
            ],
            [
              6.9784,
              46.4736
            ]
          ]
        ]
      },
      "properties": {
        "id": "freiburger_voralpen",
        "region": "Freiburger Voralpen",
        "name": "Gantrisch / Schwarzsee",
        "purpose": "precipitation_only",
        "n_points": 16,
        "reference_points": [
          [
            46.666,
            6.9926
          ],
          [
            46.5424,
            6.9245
          ],
          [
            46.7013,
            7.2435
          ],
          [
            46.6132,
            7.0825
          ],
          [
            46.793,
            7.3866
          ],
          [
            46.6507,
            7.172
          ],
          [
            46.788,
            7.3219
          ],
          [
            46.6532,
            6.9355
          ],
          [
            46.6842,
            7.1158
          ],
          [
            46.5989,
            6.9069
          ],
          [
            46.6121,
            7.0247
          ],
          [
            46.7182,
            7.1809
          ],
          [
            46.5972,
            6.9665
          ],
          [
            46.6771,
            7.0541
          ],
          [
            46.7346,
            7.329
          ],
          [
            46.7537,
            7.2561
          ]
        ]
      }
    },
    {
      "type": "Feature",
      "geometry": {
        "type": "Polygon",
        "coordinates": [
          [
            [
              7.9099,
              46.8252
            ],
            [
              7.9378,
              46.8797
            ],
            [
              7.9052,
              46.9262
            ],
            [
              7.9711,
              47.0762
            ],
            [
              7.8528,
              47.1081
            ],
            [
              7.6275,
              47.0727
            ],
            [
              7.4395,
              46.8996
            ],
            [
              7.4442,
              46.7225
            ],
            [
              7.558,
              46.7132
            ],
            [
              7.7364,
              46.6219
            ],
            [
              7.7937,
              46.6213
            ],
            [
              7.7517,
              46.7172
            ],
            [
              7.802,
              46.7577
            ],
            [
              7.9099,
              46.8252
            ]
          ]
        ]
      },
      "properties": {
        "id": "emmental",
        "region": "Emmental",
        "name": "Interlaken / Niederhorn",
        "purpose": "precipitation_only",
        "n_points": 16,
        "reference_points": [
          [
            46.8816,
            7.7124
          ],
          [
            46.8843,
            7.5333
          ],
          [
            47.0246,
            7.8614
          ],
          [
            46.9427,
            7.6071
          ],
          [
            46.7927,
            7.5696
          ],
          [
            46.859,
            7.6293
          ],
          [
            46.9444,
            7.8161
          ],
          [
            46.7164,
            7.6928
          ],
          [
            46.7962,
            7.7148
          ],
          [
            46.8025,
            7.5047
          ],
          [
            46.7655,
            7.6343
          ],
          [
            47.005,
            7.6662
          ],
          [
            47.0217,
            7.765
          ],
          [
            46.9487,
            7.7193
          ],
          [
            46.8749,
            7.8497
          ],
          [
            46.8387,
            7.7838
          ]
        ]
      }
    },
    {
      "type": "Feature",
      "geometry": {
        "type": "Polygon",
        "coordinates": [
          [
            [
              7.4395,
              46.8996
            ],
            [
              7.6275,
              47.0727
            ],
            [
              7.8528,
              47.1081
            ],
            [
              7.9711,
              47.0762
            ],
            [
              7.950323,
              47.385654
            ],
            [
              7.9503,
              47.386
            ],
            [
              7.7574,
              47.2973
            ],
            [
              7.5886,
              47.2484
            ],
            [
              7.3941,
              47.2095
            ],
            [
              7.3532,
              47.1769
            ],
            [
              7.1022,
              47.086
            ],
            [
              7.4395,
              46.8996
            ]
          ]
        ]
      },
      "properties": {
        "id": "seeland",
        "region": "Seeland",
        "name": "Belp / Bantiger",
        "purpose": "precipitation_only",
        "n_points": 16,
        "reference_points": [
          [
            47.074,
            7.4399
          ],
          [
            47.004,
            7.3942
          ],
          [
            47.2391,
            7.8048
          ],
          [
            47.1613,
            7.5193
          ],
          [
            47.1767,
            7.8854
          ],
          [
            47.1478,
            7.6802
          ],
          [
            47.2741,
            7.8859
          ],
          [
            47.0767,
            7.2595
          ],
          [
            47.0816,
            7.5324
          ],
          [
            47.0412,
            7.3263
          ],
          [
            47.1453,
            7.4392
          ],
          [
            47.1627,
            7.6017
          ],
          [
            47.1049,
            7.3589
          ],
          [
            47.0047,
            7.4638
          ],
          [
            47.1672,
            7.7774
          ],
          [
            47.214,
            7.7007
          ]
        ]
      }
    },
    {
      "type": "Feature",
      "geometry": {
        "type": "Polygon",
        "coordinates": [
          [
            [
              8.8844,
              47.0622
            ],
            [
              8.9662,
              47.1204
            ],
            [
              8.9642,
              47.1804
            ],
            [
              8.7675,
              47.1782
            ],
            [
              8.6632,
              47.1595
            ],
            [
              8.3929,
              47.1501
            ],
            [
              8.3877,
              47.0846
            ],
            [
              8.2886,
              47.0302
            ],
            [
              7.9711,
              47.0762
            ],
            [
              7.9052,
              46.9262
            ],
            [
              7.9378,
              46.8797
            ],
            [
              7.9099,
              46.8252
            ],
            [
              8.1856,
              46.9845
            ],
            [
              8.2543,
              46.9791
            ],
            [
              8.6101,
              47.0192
            ],
            [
              8.6884,
              47.031
            ],
            [
              8.8318,
              47.0448
            ],
            [
              8.8844,
              47.0622
            ]
          ]
        ]
      },
      "properties": {
        "id": "zentrale_voralpen",
        "region": "Zentrale Voralpen",
        "name": "Napf",
        "purpose": "precipitation_only",
        "n_points": 16,
        "reference_points": [
          [
            47.1114,
            8.8234
          ],
          [
            46.9346,
            7.9725
          ],
          [
            47.0857,
            8.4482
          ],
          [
            47.0057,
            8.1349
          ],
          [
            47.0005,
            8.0794
          ],
          [
            47.0114,
            8.2162
          ],
          [
            47.1088,
            8.7614
          ],
          [
            47.1097,
            8.5527
          ],
          [
            47.0672,
            8.588
          ],
          [
            47.0109,
            8.0054
          ],
          [
            46.9567,
            8.0326
          ],
          [
            47.0354,
            8.3875
          ],
          [
            47.1293,
            8.8921
          ],
          [
            47.0673,
            8.507
          ],
          [
            47.0974,
            8.7056
          ],
          [
            47.096,
            8.6434
          ]
        ]
      }
    },
    {
      "type": "Feature",
      "geometry": {
        "type": "Polygon",
        "coordinates": [
          [
            [
              7.9503,
              47.386
            ],
            [
              7.950323,
              47.385654
            ],
            [
              7.9711,
              47.0762
            ],
            [
              8.2886,
              47.0302
            ],
            [
              8.3877,
              47.0846
            ],
            [
              8.3929,
              47.1501
            ],
            [
              8.6632,
              47.1595
            ],
            [
              8.4995,
              47.2965
            ],
            [
              8.4696,
              47.4318
            ],
            [
              8.5606,
              47.6992
            ],
            [
              8.5395,
              47.7292
            ],
            [
              8.4267,
              47.7556
            ],
            [
              8.185,
              47.6382
            ],
            [
              7.9438,
              47.5709
            ],
            [
              7.9351,
              47.5309
            ],
            [
              8.0382,
              47.4259
            ],
            [
              7.9503,
              47.386
            ]
          ]
        ]
      },
      "properties": {
        "id": "zentrales_mittelland",
        "region": "Zentrales Mittelland",
        "name": "Hasliberg Planplatten",
        "purpose": "precipitation_only",
        "n_points": 16,
        "reference_points": [
          [
            47.145,
            8.1833
          ],
          [
            47.5165,
            8.0941
          ],
          [
            47.2469,
            8.414
          ],
          [
            47.5399,
            8.2318
          ],
          [
            47.6343,
            8.4322
          ],
          [
            47.5943,
            8.3288
          ],
          [
            47.4997,
            8.3808
          ],
          [
            47.1779,
            8.0706
          ],
          [
            47.2903,
            8.284
          ],
          [
            47.3058,
            8.0586
          ],
          [
            47.3611,
            8.1552
          ],
          [
            47.4197,
            8.2784
          ],
          [
            47.2526,
            8.1745
          ],
          [
            47.4524,
            8.1647
          ],
          [
            47.3641,
            8.3788
          ],
          [
            47.1635,
            8.2903
          ]
        ]
      }
    },
    {
      "type": "Feature",
      "geometry": {
        "type": "Polygon",
        "coordinates": [
          [
            [
              8.743016,
              47.457354
            ],
            [
              8.5916,
              47.4154
            ],
            [
              8.4696,
              47.4318
            ],
            [
              8.4995,
              47.2965
            ],
            [
              8.6632,
              47.1595
            ],
            [
              8.7675,
              47.1782
            ],
            [
              8.9642,
              47.1804
            ],
            [
              8.9662,
              47.1204
            ],
            [
              9.0587,
              47.1285
            ],
            [
              9.0885,
              47.1624
            ],
            [
              9.0127,
              47.2588
            ],
            [
              8.8863,
              47.2942
            ],
            [
              8.743016,
              47.457354
            ]
          ]
        ]
      },
      "properties": {
        "id": "mittelland_ost",
        "region": "Mittelland Ost",
        "name": "Uetliberg Balderen",
        "purpose": "precipitation_only",
        "n_points": 16,
        "reference_points": [
          [
            47.1849,
            9.0114
          ],
          [
            47.365,
            8.5365
          ],
          [
            47.3901,
            8.7345
          ],
          [
            47.3816,
            8.6701
          ],
          [
            47.2545,
            8.6332
          ],
          [
            47.314,
            8.6501
          ],
          [
            47.2829,
            8.8213
          ],
          [
            47.3316,
            8.7166
          ],
          [
            47.2172,
            8.6915
          ],
          [
            47.3039,
            8.5728
          ],
          [
            47.3642,
            8.6039
          ],
          [
            47.2738,
            8.7173
          ],
          [
            47.2343,
            8.8592
          ],
          [
            47.234,
            8.7727
          ],
          [
            47.23,
            8.9371
          ],
          [
            47.3281,
            8.7798
          ]
        ]
      }
    },
    {
      "type": "Feature",
      "geometry": {
        "type": "Polygon",
        "coordinates": [
          [
            [
              9.7232,
              47.5871
            ],
            [
              9.5926,
              47.611
            ],
            [
              9.574,
              47.6829
            ],
            [
              9.4345,
              47.7183
            ],
            [
              9.3909,
              47.7187
            ],
            [
              9.1758,
              47.8084
            ],
            [
              9.1036,
              47.8344
            ],
            [
              8.9016,
              47.8747
            ],
            [
              8.754,
              47.8799
            ],
            [
              8.5606,
              47.6992
            ],
            [
              8.4696,
              47.4318
            ],
            [
              8.5916,
              47.4154
            ],
            [
              8.743016,
              47.457354
            ],
            [
              8.8215,
              47.4791
            ],
            [
              9.2728,
              47.3787
            ],
            [
              9.4804,
              47.4424
            ],
            [
              9.7232,
              47.5871
            ]
          ]
        ]
      },
      "properties": {
        "id": "bodenseeraum",
        "region": "Bodenseeraum",
        "name": "Eggberge Altdorf",
        "purpose": "precipitation_only",
        "n_points": 16,
        "reference_points": [
          [
            47.742,
            9.0813
          ],
          [
            47.6624,
            8.6619
          ],
          [
            47.5807,
            9.4982
          ],
          [
            47.7715,
            8.9247
          ],
          [
            47.6584,
            8.8241
          ],
          [
            47.773,
            8.7773
          ],
          [
            47.5007,
            9.2232
          ],
          [
            47.6476,
            8.9856
          ],
          [
            47.6137,
            9.1329
          ],
          [
            47.5238,
            8.6026
          ],
          [
            47.5541,
            8.7421
          ],
          [
            47.5517,
            8.9057
          ],
          [
            47.681,
            9.23
          ],
          [
            47.5174,
            9.0606
          ],
          [
            47.6277,
            9.3547
          ],
          [
            47.502,
            9.3656
          ]
        ]
      }
    }
  ]
}